,v_id,lon,lat,typ,voltage,frequency,name,operator,ref,wkt_srid_4326,country,state,town,admin2
1576,7344,16.8054690611121,39.0877966165777,sub_station,,,,,,SRID=4326;POINT(16.8054690611121 39.0877966165777),it,calabria,foresta,provincia di crotone
1722,24764,16.7893701873898,39.181973664245604,joint,,,,,,SRID=4326;POINT(16.7893701873898 39.1819736642456),it,calabria,cotronei,provincia di crotone
2205,62142,16.043311290072598,38.4132757015636,joint,,,,,,SRID=4326;POINT(16.0433112900726 38.4132757015636),it,calabria,melicucco,provincia di reggio calabria
2290,62703,16.4763105947569,39.1563737918331,joint,,,,,,SRID=4326;POINT(16.4763105947569 39.1563737918331),it,calabria,parenti,provincia di cosenza
2581,54442,17.0347872208803,39.10278796518,merge,380000,,Scandale;Centrale Termoelettrica di Scandale,Terna,,SRID=4326;POINT(17.0347872208803 39.10278796518),it,calabria,papanice,provincia di crotone
2873,54055,16.6063752955274,39.618908561359206,merge,380000;150000,,Rossano Termica;Rossano,Terna,,SRID=4326;POINT(16.6063752955274 39.6189085613592),it,calabria,rossano stazione,provincia di cosenza
3142,30953,16.7836479190299,39.16382737178421,joint,,,,,,SRID=4326;POINT(16.7836479190299 39.1638273717842),it,calabria,cotronei,provincia di crotone
4408,11805,16.724662968861303,39.19253423034839,sub_station,,,Centrale Idroelettrica di Orichella,,,SRID=4326;POINT(16.7246629688613 39.1925342303484),it,calabria,pagliarelle,provincia di crotone
4500,46578,16.7018097583187,39.2424895961542,substation,,,,,,SRID=4326;POINT(16.7018097583187 39.2424895961542),it,calabria,san giovanni in fiore,provincia di cosenza
4544,46594,16.6579776819542,38.876485888642996,substation,380000,,Simeri Crichi,Edison,,SRID=4326;POINT(16.6579776819542 38.876485888643),it,calabria,barone,provincia di catanzaro
4710,54443,16.3616067384451,38.933004628301795,merge,380000;150000,,Stazione Elettrica di Feroleto;Feroleto CP,Terna,,SRID=4326;POINT(16.3616067384451 38.9330046283018),it,calabria,pianopoli,provincia di catanzaro
4997,7256,16.214832800464198,39.7125969001825,substation,380000,,Altomonte,Terna,,SRID=4326;POINT(16.2148328004642 39.7125969001825),it,calabria,firmo,provincia di cosenza
5298,12577,17.0601037101626,39.310516756233795,sub_station,,,,,,SRID=4326;POINT(17.0601037101626 39.3105167562338),it,calabria,melissa,provincia di crotone
5555,45794,16.8340244238926,39.18399793840229,station,,,Centrale Idroelettrica di Calusia,,,SRID=4326;POINT(16.8340244238926 39.1839979384023),it,calabria,roccabernarda,provincia di crotone
5615,64941,16.7840045501977,39.1646073809289,joint,,,,,,SRID=4326;POINT(16.7840045501977 39.1646073809289),it,calabria,cotronei,provincia di crotone
5623,46579,16.481267146055,39.1579284417889,sub_station,,,,,,SRID=4326;POINT(16.481267146055 39.1579284417889),it,calabria,parenti,provincia di cosenza
6579,55950,16.4905678649647,39.1738040900658,joint,,,,,,SRID=4326;POINT(16.4905678649647 39.1738040900658),it,calabria,parenti,provincia di cosenza
6907,11803,16.7119813596495,39.2623856363308,sub_station,,,,,,SRID=4326;POINT(16.7119813596495 39.2623856363308),it,calabria,san giovanni in fiore,provincia di cosenza
6912,41321,17.0401232207746,39.231834154485895,sub_station,,,,,,SRID=4326;POINT(17.0401232207746 39.2318341544859),it,calabria,strongoli,provincia di crotone
6966,54057,15.986581592103901,38.442658798841,merge,380000,,Rizziconi;Rizziconi Centrale,Terna,,SRID=4326;POINT(15.9865815921039 38.442658798841),it,calabria,rizziconi,provincia di reggio calabria
7818,41331,15.6379268027651,38.2032356596408,substation,380000,,Bolano,Terna,,SRID=4326;POINT(15.6379268027651 38.2032356596408),it,calabria,campo calabro,provincia di reggio calabria
8001,22947,17.056233786821497,39.1205634824676,joint,,,,,,SRID=4326;POINT(17.0562337868215 39.1205634824676),it,calabria,papanice,provincia di crotone
8172,46602,16.771531082937802,39.2740112732049,sub_station,,,,,,SRID=4326;POINT(16.7715310829378 39.2740112732049),it,calabria,castelsilano,provincia di crotone
8692,12633,16.770749895236097,39.219275548872396,sub_station,,,,,,SRID=4326;POINT(16.7707498952361 39.2192755488724),it,calabria,caccuri,provincia di crotone
9437,21237,16.4652590815275,38.8686450547097,merge,380000,,Maida,Terna,,SRID=4326;POINT(16.4652590815275 38.8686450547097),it,calabria,caraffa di catanzaro,provincia di catanzaro
10011,23859,15.633585974911401,38.2037220178363,joint,380000,,,,21.326,SRID=4326;POINT(15.6335859749114 38.2037220178363),it,calabria,campo calabro,provincia di reggio calabria
10590,25050,16.5058071763209,39.1634146230225,joint,,,,,,SRID=4326;POINT(16.5058071763209 39.1634146230225),it,calabria,parenti,provincia di cosenza
11171,58661,16.8322396792101,39.1936780894084,joint,,,,,,SRID=4326;POINT(16.8322396792101 39.1936780894084),it,calabria,belvedere spinello,provincia di crotone
11178,28194,16.3859185986153,39.070206375823005,joint,,,,,,SRID=4326;POINT(16.3859185986153 39.070206375823),it,calabria,soveria mannelli,provincia di catanzaro
11561,46595,16.616253680138303,38.9955814364085,substation,380000,,Magisano,Terna,,SRID=4326;POINT(16.6162536801383 38.9955814364085),it,calabria,sellia,provincia di catanzaro
12516,41413,16.3163302777727,39.191602714327395,sub_station,,,,,,SRID=4326;POINT(16.3163302777727 39.1916027143274),it,calabria,santo stefano di rogliano,provincia di cosenza
12607,22946,17.0630442743165,39.115741809644106,joint,,,,,,SRID=4326;POINT(17.0630442743165 39.1157418096441),it,calabria,papanice,provincia di crotone
12620,12627,16.7761935349277,39.310271171692904,sub_station,,,,,,SRID=4326;POINT(16.7761935349277 39.3102711716929),it,calabria,savelli,provincia di crotone
12653,65122,17.0586432480766,39.3122132072999,joint,,,,,,SRID=4326;POINT(17.0586432480766 39.3122132072999),it,calabria,melissa,provincia di crotone
13097,11804,16.7810628545318,39.1757630839189,sub_station,,,,,,SRID=4326;POINT(16.7810628545318 39.1757630839189),it,calabria,cotronei,provincia di crotone
13241,12632,16.773212775169803,39.248984211943295,sub_station,,,,,,SRID=4326;POINT(16.7732127751698 39.2489842119433),it,calabria,cerenzia,provincia di crotone
13264,12032,16.2897447164853,39.274658993524206,sub_station,,,,,,SRID=4326;POINT(16.2897447164853 39.2746589935242),it,calabria,donnici inferiore,provincia di cosenza
