,v_id,lon,lat,typ,voltage,frequency,name,operator,ref,wkt_srid_4326,country,state,town,admin2
1,45518,38.2154050764474,48.066401241798495,substation,330000;110000;10000,50,Харцизька-330,,,SRID=4326;POINT(38.2154050764474 48.0664012417985),ua,donetsk,khartsyz'k,
33,23463,37.079098283563205,47.9834456942662,joint,330000,50,,,,SRID=4326;POINT(37.0790982835632 47.9834456942662),ua,donetsk,kurakhovo,
72,15856,37.5003252904084,48.107499541405105,substation,,,,,,SRID=4326;POINT(37.5003252904084 48.1074995414051),ua,donetsk,mareyka,
213,57337,37.1397988846156,47.986133480032905,joint,330000,50,,,,SRID=4326;POINT(37.1397988846156 47.9861334800329),ua,donetsk,kurakhovo,
360,16906,38.5338792899999,48.01889637446,substation,330000;110000;10000,50,Південна-330,,,SRID=4326;POINT(38.5338792899999 48.01889637446),ua,donetsk,torez,
612,15886,38.279729988286,48.4576943995193,substation,,,,,,SRID=4326;POINT(38.279729988286 48.4576943995193),ua,donetsk,luhans'ke,
814,29074,37.81981484839461,47.9725543234465,joint,220000,,220 kV,,,SRID=4326;POINT(37.8198148483946 47.9725543234465),ua,donetsk,donetsk,
960,23968,37.230756541067706,47.988588693477794,joint,330000,,,,,SRID=4326;POINT(37.2307565410677 47.9885886934778),ua,donetsk,kurakhovo,
1032,23455,37.1042916255379,47.98810741206451,joint,330000,50,,,,SRID=4326;POINT(37.1042916255379 47.9881074120645),ua,donetsk,kurakhovo,
1450,57358,36.7821702275287,47.929341091343495,joint,330000,50,,,,SRID=4326;POINT(36.7821702275287 47.9293410913435),ua,donetsk,velyka novosilka,
1466,55607,38.2364312640185,48.291319910038396,joint,,,,,,SRID=4326;POINT(38.2364312640185 48.2913199100384),ua,donetsk,vuhlehirs'k,
1808,55559,37.9319276524803,47.961080334741,joint,220000,,220 kV,,,SRID=4326;POINT(37.9319276524803 47.961080334741),ua,donetsk,makiyivka,
2227,50282,37.5613119238711,47.18538395920321,substation,330000;110000;10000,50,Мирна-330,,,SRID=4326;POINT(37.5613119238711 47.1853839592032),ua,donetsk,staryy krym,
2363,30550,37.231899198109105,47.9875242168301,joint,330000,,,,,SRID=4326;POINT(37.2318991981091 47.9875242168301),ua,donetsk,kurakhovo,
2482,50604,37.5195286129747,47.189209810685995,substation,,,,,,SRID=4326;POINT(37.5195286129747 47.189209810686),ua,donetsk,staryy krym,
2531,63031,38.098553231029896,48.0635282911294,joint,220000;110000;110000;110000,,,,,SRID=4326;POINT(38.0985532310299 48.0635282911294),ua,donetsk,khartsyz'k,
2938,16425,38.255428438041896,48.017522049473804,substation,,,,,,SRID=4326;POINT(38.2554284380419 48.0175220494738),ua,donetsk,zuhres,
2975,49977,37.5121763764435,47.1643682648725,substation,220000;110000;35000;10000,50,Азовська-220,,,SRID=4326;POINT(37.5121763764435 47.1643682648725),ua,donetsk,staryy krym,
2977,23485,36.7772672227079,47.92900498199221,joint,330000,50,,,,SRID=4326;POINT(36.7772672227079 47.9290049819922),ua,donetsk,velyka novosilka,
3187,62796,38.149389486272504,48.395369096488196,joint,,,,,,SRID=4326;POINT(38.1493894862725 48.3953690964882),ua,donetsk,svetlodarsk,
3287,34082,37.818671375510704,47.971973561499794,joint,,,,,,SRID=4326;POINT(37.8186713755107 47.9719735614998),ua,donetsk,donetsk,
3352,16451,38.140121493340104,48.4339847160077,substation,,,,,,SRID=4326;POINT(38.1401214933401 48.4339847160077),ua,donetsk,svetlodarsk,
3435,49769,37.6211834624354,48.237278791690706,substation,,,,,,SRID=4326;POINT(37.6211834624354 48.2372787916907),ua,donetsk,avdiyivka,
3576,29152,37.4033916350631,47.386650865787104,joint,750000;35000,,,,,SRID=4326;POINT(37.4033916350631 47.3866508657871),ua,donetsk,volodars'ke,
3588,62479,38.2400393354353,48.2564308044281,joint,,,,,,SRID=4326;POINT(38.2400393354353 48.2564308044281),ua,donetsk,yenakiyeve,
3853,63267,37.8554458835951,48.3677791836795,joint,,,,,,SRID=4326;POINT(37.8554458835951 48.3677791836795),ua,donetsk,dzerzhyns'k,
4041,50315,37.5692493407525,48.7793723212106,substation,220000;110000;35000;6000,50,ПС ЛИП-220,,,SRID=4326;POINT(37.5692493407525 48.7793723212106),ua,donetsk,kramators'k,
5064,30233,37.8294684065736,47.941582193063496,joint,220000,,220 kV,,,SRID=4326;POINT(37.8294684065736 47.9415821930635),ua,donetsk,donetsk,
5269,44838,37.9267849780706,47.9598345507345,substation,,,,,,SRID=4326;POINT(37.9267849780706 47.9598345507345),ua,donetsk,makiyivka,
5592,62414,37.9395690467111,47.992705898500205,joint,220000,,220 kV,,,SRID=4326;POINT(37.9395690467111 47.9927058985002),ua,donetsk,makiyivka,
5744,20956,37.7418545683174,48.02365061956429,merge,220000;110000;35000;10000;35000;6000,50,Смолянка-220,,,SRID=4326;POINT(37.7418545683174 48.0236506195643),ua,donetsk,donetsk,
5824,31441,37.921238948526295,48.128019468857495,joint,,,,,,SRID=4326;POINT(37.9212389485263 48.1280194688575),ua,donetsk,yasynuvata,
5848,16107,37.2391047578497,47.9940718706388,plant,,,Кураховська ТЭС,,,SRID=4326;POINT(37.2391047578497 47.9940718706388),ua,donetsk,kurakhovo,
6145,30549,37.2256492593514,47.9869745643202,joint,330000,50,,,Л-268;Л-269,SRID=4326;POINT(37.2256492593514 47.9869745643202),ua,donetsk,kurakhovo,
6357,23486,36.772160210486206,47.929069688027404,joint,330000,50,,,,SRID=4326;POINT(36.7721602104862 47.9290696880274),ua,donetsk,velyka novosilka,
6359,23483,36.7694700257049,47.9288235037033,joint,330000,50,,,,SRID=4326;POINT(36.7694700257049 47.9288235037033),ua,donetsk,velyka novosilka,
6432,64136,37.142911367412,47.986087003247995,joint,330000,50,,,,SRID=4326;POINT(37.142911367412 47.986087003248),ua,donetsk,kurakhovo,
6446,23462,37.104111513323396,47.9878654770269,joint,330000,50,,,,SRID=4326;POINT(37.1041115133234 47.9878654770269),ua,donetsk,kurakhovo,
6667,8830,38.2678257143574,48.3189617870464,substation,,,,,,SRID=4326;POINT(38.2678257143574 48.3189617870464),ua,donetsk,vuhlehirs'k,
6815,23442,37.7507668248688,48.8437872146284,joint,330000,,,,,SRID=4326;POINT(37.7507668248688 48.8437872146284),ua,donetsk,sloviansk,
6826,50154,38.2581182863404,48.2904840844555,substation,,,,,,SRID=4326;POINT(38.2581182863404 48.2904840844555),ua,donetsk,vuhlehirs'k,
7283,42221,37.7597397054508,48.534343527471,station,330000;110000;10000,50,«Травнева» 330/110 кВ,НЭК Укрэнерго,,SRID=4326;POINT(37.7597397054508 48.534343527471),ua,donetsk,kostyantynivka,
7295,23464,37.0827727524014,47.9842571795691,joint,330000,50,,,,SRID=4326;POINT(37.0827727524014 47.9842571795691),ua,donetsk,kurakhovo,
7339,57356,36.7721816802215,47.9288144749161,joint,330000,50,,,,SRID=4326;POINT(36.7721816802215 47.9288144749161),ua,donetsk,velyka novosilka,
7378,62413,37.9318080928946,47.957697094669705,joint,220000,,220 kV,,,SRID=4326;POINT(37.9318080928946 47.9576970946697),ua,donetsk,makiyivka,
7388,10747,37.42685887415671,47.3244684519654,substation,750000;330000;15000,50,Південнодонбаська-750,,,SRID=4326;POINT(37.4268588741567 47.3244684519654),ua,donetsk,volodars'ke,
7547,16930,38.0066687671741,47.8018568300469,plant,,,Старобешевская ТЭС,,,SRID=4326;POINT(38.0066687671741 47.8018568300469),ua,donetsk,novyy svit,
7955,28599,37.932906440629,47.9612481066897,joint,110000;330000;110000;330000,,,,,SRID=4326;POINT(37.932906440629 47.9612481066897),ua,donetsk,makiyivka,
7998,56017,37.7573297695635,48.8740383148673,joint,330000;110000,,,,,SRID=4326;POINT(37.7573297695635 48.8740383148673),ua,donetsk,krasnyy lyman,
8173,47791,38.090201413631604,48.558736834865705,substation,750000;500000;330000;15000,50,Донбаська-750,,,SRID=4326;POINT(38.0902014136316 48.5587368348657),ua,donetsk,artemivs'k,
8431,57335,37.1078317064095,47.987652400100295,joint,330000,50,,,,SRID=4326;POINT(37.1078317064095 47.9876524001003),ua,donetsk,kurakhovo,
8489,59866,38.2368613049495,48.2917934883543,joint,,,,,,SRID=4326;POINT(38.2368613049495 48.2917934883543),ua,donetsk,vuhlehirs'k,
9206,66548,37.9639428808397,47.9842491826289,joint,,,,,,SRID=4326;POINT(37.9639428808397 47.9842491826289),ua,donetsk,makiyivka,
9312,49866,38.28658815766529,48.47767546749411,substation,,,,,,SRID=4326;POINT(38.2865881576653 48.4776754674941),ua,donetsk,luhans'ke,
9333,49359,37.5939589855409,47.297515667221695,substation,330000;110000;10000,50,Зоря-330,,,SRID=4326;POINT(37.5939589855409 47.2975156672217),ua,donetsk,sartana,
9553,44158,37.76448598046029,48.871801985255296,plant,,50,Слов'янська ТЕЦ,Донбассэнерго,,SRID=4326;POINT(37.7644859804603 48.8718019852553),ua,donetsk,krasnyy lyman,
9739,10236,37.91954838774579,48.01901847296121,substation,330000;220000;110000;35000;6000,50,Чайкіне-330,,,SRID=4326;POINT(37.9195483877458 48.0190184729612),ua,donetsk,makiyivka,
9880,23460,37.1076151225945,47.98789018764071,joint,330000,50,,,,SRID=4326;POINT(37.1076151225945 47.9878901876407),ua,donetsk,kurakhovo,
9934,50146,38.247527246519,48.25330125059651,substation,,,,,,SRID=4326;POINT(38.247527246519 48.2533012505965),ua,donetsk,yenakiyeve,
10071,29068,38.097273993222,48.061080707025795,joint,220000;110000;110000;110000,,,,,SRID=4326;POINT(38.097273993222 48.0610807070258),ua,donetsk,khartsyz'k,
10255,57324,38.0620806815263,47.99155768870979,joint,330000,,,,,SRID=4326;POINT(38.0620806815263 47.9915576887098),ua,donetsk,khartsyz'k,
10462,55400,37.3550880930352,47.5795766934876,merge,330000;110000;10000,50,Іванівка-330,,,SRID=4326;POINT(37.3550880930352 47.5795766934876),ua,donetsk,blahodatne,
10784,63030,38.0958395776236,48.0580914105299,joint,220000;110000;110000;110000,,,,,SRID=4326;POINT(38.0958395776236 48.0580914105299),ua,donetsk,khartsyz'k,
10802,50081,37.830490675895604,47.9447104661931,substation,,,,,,SRID=4326;POINT(37.8304906758956 47.9447104661931),ua,donetsk,donetsk,
10937,28710,37.684900987118,47.9266060090357,joint,220000;35000;110000;110000;220000;110000;110000,,,,,SRID=4326;POINT(37.684900987118 47.9266060090357),ua,donetsk,donetsk,
10979,57338,37.1428693262567,47.98584048920011,joint,330000,50,,,,SRID=4326;POINT(37.1428693262567 47.9858404892001),ua,donetsk,kurakhovo,
11102,57340,37.079012224959,47.9837058688111,joint,330000,50,,,,SRID=4326;POINT(37.079012224959 47.9837058688111),ua,donetsk,kurakhovo,
11410,32577,38.285028521326296,48.4568709931089,joint,,,,,,SRID=4326;POINT(38.2850285213263 48.4568709931089),ua,donetsk,luhans'ke,
11662,20608,38.198975627504204,48.4658659879929,merge,,,Вуглегірська ТЕС,"ПАТ ""Центренерго""",,SRID=4326;POINT(38.1989756275042 48.4658659879929),ua,donetsk,svetlodarsk,
11817,55608,38.2822298929861,48.45337075646479,joint,,,,,,SRID=4326;POINT(38.2822298929861 48.4533707564648),ua,donetsk,luhans'ke,
11923,23461,37.1458297242756,47.9858276824625,joint,330000,50,,,,SRID=4326;POINT(37.1458297242756 47.9858276824625),ua,donetsk,kurakhovo,
12226,50079,37.8297314902471,47.9728278372833,substation,220000;110000;35000,50,ДМЗ-220,,,SRID=4326;POINT(37.8297314902471 47.9728278372833),ua,donetsk,donetsk,
12527,32575,38.2484763419101,48.32165830408339,joint,,,,,,SRID=4326;POINT(38.2484763419101 48.3216583040834),ua,donetsk,vuhlehirs'k,
12616,10676,37.1899395534201,48.3987079341477,substation,330000;110000;35000;10000,50,Червоноармійська-330,,,SRID=4326;POINT(37.1899395534201 48.3987079341477),ua,donetsk,bilyts'ke,
12664,62618,37.7180635850412,48.007136010714596,joint,220000;35000;110000;110000;220000;110000;110000,,,,,SRID=4326;POINT(37.7180635850412 48.0071360107146),ua,donetsk,donetsk,
12745,23457,37.109280868625895,47.987709998295294,joint,330000,50,,,,SRID=4326;POINT(37.1092808686259 47.9877099982953),ua,donetsk,kurakhovo,
12946,62520,38.233254093694796,48.43592786779139,joint,,,,,,SRID=4326;POINT(38.2332540936948 48.4359278677914),ua,donetsk,svetlodarsk,
13109,57339,37.1032829971369,47.988016686558296,joint,330000,50,,,,SRID=4326;POINT(37.1032829971369 47.9880166865583),ua,donetsk,kurakhovo,
13318,28838,37.9637454862415,47.9857777114342,joint,220000,,,,,SRID=4326;POINT(37.9637454862415 47.9857777114342),ua,donetsk,makiyivka,
13521,20642,38.2814851562262,48.03433562034839,merge,,,Зуевская ТЭС,ДТЕК,,SRID=4326;POINT(38.2814851562262 48.0343356203484),ua,donetsk,zuhres,
13548,11861,37.8571319800875,48.364748592772706,station,330000;110000;35000;10000,50,«Центральна» 330/110/35 кВ,НЭК Укрэнерго,,SRID=4326;POINT(37.8571319800875 48.3647485927727),ua,donetsk,dzerzhyns'k,
13551,57341,37.0761844182761,47.9830623748622,joint,330000,50,,,,SRID=4326;POINT(37.0761844182761 47.9830623748622),ua,donetsk,kurakhovo,
13718,55840,38.162190809900295,48.4255559229245,joint,,,,,,SRID=4326;POINT(38.1621908099003 48.4255559229245),ua,donetsk,svetlodarsk,
13773,45110,37.9341777332454,48.1188159868428,substation,330000;110000;35000;10000,,Макіївська,,,SRID=4326;POINT(37.9341777332454 48.1188159868428),ua,donetsk,makiyivka,
13776,57357,36.777248358087,47.9292674171311,joint,330000,50,,,,SRID=4326;POINT(36.777248358087 47.9292674171311),ua,donetsk,velyka novosilka,
