,v_id,lon,lat,typ,voltage,frequency,name,operator,ref,wkt_srid_4326,country,state,town,admin2
195,64586,-8.40789715556761,43.1727056984304,joint,220000,50,,Red Eléctrica de España,,SRID=4326;POINT(-8.40789715556761 43.1727056984304),es,galicia,cerceda,provincia da coruna
307,8922,-8.26629540684128,42.607242305052296,station,,,,,,SRID=4326;POINT(-8.26629540684128 42.6072423050523),es,galicia,forcarei,provincia de pontevedra
337,8876,-8.26932755383456,42.261089269306204,substation,220000,50,,Red Eléctrica de España,,SRID=4326;POINT(-8.26932755383456 42.2610892693062),es,galicia,melon,provincia de ourense
341,8926,-8.845280665499109,42.8306932234101,substation,220000,50,,,,SRID=4326;POINT(-8.84528066549911 42.8306932234101),es,galicia,lousame,provincia da coruna
410,5807,-7.4013531203355996,42.3256866048944,station,,,Parque eólico Pena da Cruz,Sistemas Energéticos Chandrexa S.A.,RE-3506,SRID=4326;POINT(-7.4013531203356 42.3256866048944),es,galicia,castro caldelas,provincia de ourense
443,8990,-7.93824868977278,42.7421095720045,substation,,50,,,,SRID=4326;POINT(-7.93824868977278 42.7421095720045),es,galicia,rodeiro,provincia de pontevedra
680,30970,-7.22784872861292,42.299074311994,joint,220000,,,Red Eléctrica de España,,SRID=4326;POINT(-7.22784872861292 42.299074311994),es,galicia,manzaneda,provincia de ourense
869,29106,-8.38568121715629,43.133523624531605,joint,220000,,,Red Eléctrica de España,,SRID=4326;POINT(-8.38568121715629 43.1335236245316),es,galicia,ordes,provincia da coruna
920,64061,-8.5845103421704,42.1896232796535,joint,220000;220000;132000;132000,50,,,,SRID=4326;POINT(-8.5845103421704 42.1896232796535),es,galicia,porrino,provincia de pontevedra
1001,64486,-8.42501060071926,43.3396511974795,joint,220000,50,,Red Eléctrica Española,,SRID=4326;POINT(-8.42501060071926 43.3396511974795),es,galicia,a coruna,provincia da coruna
1014,42978,-9.08525840510606,42.9821318249485,substation,220000;66000,50,Subestación de Dumbría,Red Eléctrica de España;Unión Fenosa Distribución,,SRID=4326;POINT(-9.08525840510606 42.9821318249485),es,galicia,dumbria,provincia da coruna
1021,6229,-8.62186199125903,42.13761724922129,substation,220000;150000,50,"Subestación de Fenosa ""A Casilla""","Unión Fenosa, S.A.",,SRID=4326;POINT(-8.62186199125903 42.1376172492213),es,galicia,porrino,provincia de pontevedra
1159,11807,-7.174171325337991,42.1677322050464,substation,220000,50,,,,SRID=4326;POINT(-7.17417132533799 42.1677322050464),es,galicia,vilarino de conso,provincia de ourense
1202,30493,-8.43033042383182,43.3175476567521,joint,220000,50,,Red Eléctrica de España,,SRID=4326;POINT(-8.43033042383182 43.3175476567521),es,galicia,culleredo,provincia da coruna
1235,11895,-7.34722189276515,42.3199208498257,station,,,,,,SRID=4326;POINT(-7.34722189276515 42.3199208498257),es,galicia,castro caldelas,provincia de ourense
1335,65198,-8.376718338854861,43.153217060781294,joint,,,,,,SRID=4326;POINT(-8.37671833885486 43.1532170607813),es,galicia,carral,provincia da coruna
1341,31390,-8.411916038485709,43.165383519227895,joint,,,,,,SRID=4326;POINT(-8.41191603848571 43.1653835192279),es,galicia,cerceda,provincia da coruna
1479,62634,-8.30757897971383,43.134387294765304,joint,220000,50,,Red Eléctrica Española,,SRID=4326;POINT(-8.30757897971383 43.1343872947653),es,galicia,mesia,provincia da coruna
1520,20659,-8.53185190355293,42.89130618541321,merge,,,,Union Fenosa,,SRID=4326;POINT(-8.53185190355293 42.8913061854132),es,galicia,santiago de compostela,provincia da coruna
1787,10828,-8.40950056992843,43.169090666730696,substation,220000,50,,,,SRID=4326;POINT(-8.40950056992843 43.1690906667307),es,galicia,cerceda,provincia da coruna
1886,30175,-8.20242819557681,42.853881359938796,joint,220000,50,,Red Eléctrica de España,,SRID=4326;POINT(-8.20242819557681 42.8538813599388),es,galicia,arzua,provincia da coruna
1901,63035,-8.39901864511969,43.1576036118004,joint,220000,50,,Red Eléctrica de España,,SRID=4326;POINT(-8.39901864511969 43.1576036118004),es,galicia,ordes,provincia da coruna
1932,54790,-7.93008714129657,43.1200635151843,merge,,,,,,SRID=4326;POINT(-7.93008714129657 43.1200635151843),es,galicia,guitiriz,provincia de lugo
1978,23526,-8.25050234649022,42.555260458438795,joint,220000,50,,,,SRID=4326;POINT(-8.25050234649022 42.5552604584388),es,galicia,forcarei,provincia de pontevedra
2020,47120,-9.06872129144585,43.1097205438888,substation,,,,,,SRID=4326;POINT(-9.06872129144585 43.1097205438888),es,galicia,vimianzo,provincia da coruna
2278,11824,-7.854190629723281,43.4337893840166,substation,132000,50,Mourela,,,SRID=4326;POINT(-7.85419062972328 43.4337893840166),es,galicia,as pontes de garcia rodriguez,provincia da coruna
2323,57403,-8.11220104911373,42.288807474084,joint,220000,50,,,,SRID=4326;POINT(-8.11220104911373 42.288807474084),es,galicia,ribadavia,provincia de ourense
2596,65150,-8.18846613027338,43.1107546711602,joint,,,,,,SRID=4326;POINT(-8.18846613027338 43.1107546711602),es,galicia,cesuras,provincia da coruna
3132,62648,-8.36928648346747,43.2685348639559,joint,220000,50,,Red Eléctrica Española,,SRID=4326;POINT(-8.36928648346747 43.2685348639559),es,galicia,culleredo,provincia da coruna
3451,47142,-7.546396607380331,43.640848025158995,station,,,,,,SRID=4326;POINT(-7.54639660738033 43.640848025159),es,galicia,viveiro,provincia de lugo
3688,42506,-8.2028642677098,41.8692214959823,substation,400000,50,,,,SRID=4326;POINT(-8.2028642677098 41.8692214959823),es,galicia,entrimo,provincia de ourense
3698,8914,-7.84873338102579,42.3578104610149,substation,220000,50,Subestación de Velle,Red Eléctrica de España,,SRID=4326;POINT(-7.84873338102579 42.3578104610149),es,galicia,ourense,provincia de ourense
3750,42974,-8.36742919319141,42.490114672294396,station,,,,,,SRID=4326;POINT(-8.36742919319141 42.4901146722944),es,galicia,forcarei,provincia de pontevedra
3815,56209,-7.653463831172349,42.414154054144504,joint,220000;132000,,Línea Peares-San Esteban,Red Eléctrica de España,,SRID=4326;POINT(-7.65346383117235 42.4141540541445),es,galicia,luintra,provincia de ourense
3862,63355,-8.63663670349895,42.8800922013947,joint,220000,,,Red Eléctrica de España,,SRID=4326;POINT(-8.63663670349895 42.8800922013947),es,galicia,ames,provincia da coruna
4170,23527,-9.051616054112289,43.121064760437406,joint,220000;220000;66000,50,,Red Eléctrica de España,,SRID=4326;POINT(-9.05161605411229 43.1210647604374),es,galicia,vimianzo,provincia da coruna
4182,21124,-8.023496041135159,43.151442862563705,merge,220000,50,,,,SRID=4326;POINT(-8.02349604113516 43.1514428625637),es,galicia,curtis,provincia da coruna
4208,44760,-8.50110519624086,43.3292070487649,substation,220000;66000,50,,,,SRID=4326;POINT(-8.50110519624086 43.3292070487649),es,galicia,arteixo,provincia da coruna
4219,8739,-7.713507870437129,42.6263776133674,substation,220000,50,Subestación de Belesar,Red Eléctrica de España,,SRID=4326;POINT(-7.71350787043713 42.6263776133674),es,galicia,chantada,provincia de lugo
4299,58691,-7.474468793117009,43.6944434862548,joint,,,,,,SRID=4326;POINT(-7.47446879311701 43.6944434862548),es,galicia,xove,provincia de lugo
4474,8923,-8.158673222988531,42.7417941073115,substation,220000,50,,,,SRID=4326;POINT(-8.15867322298853 42.7417941073115),es,galicia,lalin,provincia de pontevedra
4497,30168,-8.192559932686171,42.8537152742931,joint,220000,50,,Red Eléctrica de España,,SRID=4326;POINT(-8.19255993268617 42.8537152742931),es,galicia,arzua,provincia da coruna
4606,35453,-8.19880780531875,43.12068898321421,sub_station,,,,,,SRID=4326;POINT(-8.19880780531875 43.1206889832142),es,galicia,cesuras,provincia da coruna
4642,10226,-8.429310799288059,43.342639557922496,substation,220000,50,,,,SRID=4326;POINT(-8.42931079928806 43.3426395579225),es,galicia,a coruna,provincia da coruna
4650,45421,-7.72696382352944,42.46762810785889,substation,132000,50,,,,SRID=4326;POINT(-7.72696382352944 42.4676281078589),es,galicia,nogueira de ramuin,provincia de ourense
4864,42784,-7.7684318264242105,42.6253697682215,substation,220000;132000;66000,50,Subestación de Chantada,,,SRID=4326;POINT(-7.76843182642421 42.6253697682215),es,galicia,chantada,provincia de lugo
5039,44730,-8.4954513563192,43.332192450704795,station,,,,,,SRID=4326;POINT(-8.4954513563192 43.3321924507048),es,galicia,arteixo,provincia da coruna
5065,8925,-8.189699866404519,42.8536845047847,substation,220000;66000,50,Subestacion de Portodemouros,Red Eléctrica de España,,SRID=4326;POINT(-8.18969986640452 42.8536845047847),es,galicia,arzua,provincia da coruna
5104,30596,-8.15896213257634,43.140306110854205,joint,220000,,,Red Eléctrica de España,,SRID=4326;POINT(-8.15896213257634 43.1403061108542),es,galicia,cesuras,provincia da coruna
5303,23525,-8.32266598955716,42.491165890012,joint,220000,50,,,,SRID=4326;POINT(-8.32266598955716 42.491165890012),es,galicia,forcarei,provincia de pontevedra
5318,67299,-7.825484502239901,43.02382317256821,joint,,,,,,SRID=4326;POINT(-7.8254845022399 43.0238231725682),es,galicia,friol,provincia de lugo
5386,44510,-7.552926647943321,43.5891037028543,substation,400000;132000,50,Subestacion de Boimente,Red Eléctrica de España,,SRID=4326;POINT(-7.55292664794332 43.5891037028543),es,galicia,viveiro,provincia de lugo
5526,39282,-8.5899988793278,42.2631233055135,substation,220000,50,,Red Eléctrica de España,,SRID=4326;POINT(-8.5899988793278 42.2631233055135),es,galicia,redondela,provincia de pontevedra
5668,8894,-7.886066746415611,42.66605253336329,substation,,50,,,,SRID=4326;POINT(-7.88606674641561 42.6660525333633),es,galicia,rodeiro,provincia de pontevedra
5693,13928,-8.31740171126468,42.3422557434035,substation,220000,50,,Red Eléctrica de España,,SRID=4326;POINT(-8.31740171126468 42.3422557434035),es,galicia,avion,provincia de ourense
5739,1355,-8.40595149449374,43.30388667746139,sub_station,,,,,,SRID=4326;POINT(-8.40595149449374 43.3038866774614),es,galicia,culleredo,provincia da coruna
5755,30955,-7.10670642097298,42.1583374887974,joint,220000,,,Red Eléctrica de España,,SRID=4326;POINT(-7.10670642097298 42.1583374887974),es,galicia,vilarino de conso,provincia de ourense
5953,28732,-8.36417175918438,43.263299630085605,joint,220000,50,,Red Eléctrica Española,,SRID=4326;POINT(-8.36417175918438 43.2632996300856),es,galicia,culleredo,provincia da coruna
6570,54859,-7.96705549998471,42.3885614504975,merge,,,,,,SRID=4326;POINT(-7.96705549998471 42.3885614504975),es,galicia,amoeiro,provincia de ourense
6634,10827,-8.43949087902571,43.1701746233486,substation,220000,50,,,,SRID=4326;POINT(-8.43949087902571 43.1701746233486),es,galicia,cerceda,provincia da coruna
6636,62649,-8.39069782661891,43.29337737982839,joint,220000,50,,Red Eléctrica Española,,SRID=4326;POINT(-8.39069782661891 43.2933773798284),es,galicia,culleredo,provincia da coruna
6888,6867,-7.28130082959717,42.34437223011621,substation,400000;220000,50,Subestación eléctrica de A Pobra de Trives,Red Eléctrica de España,,SRID=4326;POINT(-7.28130082959717 42.3443722301162),es,galicia,manzaneda,provincia de ourense
6997,29165,-8.00849336231971,43.1426185779759,joint,,,,,,SRID=4326;POINT(-8.00849336231971 43.1426185779759),es,galicia,curtis,provincia da coruna
7031,23504,-8.13801952869461,42.300962797852705,joint,220000,50,,Red Eléctrica de España,,SRID=4326;POINT(-8.13801952869461 42.3009627978527),es,galicia,ribadavia,provincia de ourense
7188,33810,-8.58637335823814,42.1891276162896,joint,220000;132000;132000;220000,50,,Red Eléctrica de España,,SRID=4326;POINT(-8.58637335823814 42.1891276162896),es,galicia,porrino,provincia de pontevedra
7232,11897,-7.47888166657557,43.7019046398138,substation,,,Subestacion de Xove,,,SRID=4326;POINT(-7.47888166657557 43.7019046398138),es,galicia,xove,provincia de lugo
7371,31335,-7.8290818956266905,43.0211665708389,joint,,,,,,SRID=4326;POINT(-7.82908189562669 43.0211665708389),es,galicia,friol,provincia de lugo
7429,24947,-8.32038274159952,42.8585101755219,joint,220000;66000;66000;220000,50,,,,SRID=4326;POINT(-8.32038274159952 42.8585101755219),es,galicia,touro,provincia da coruna
7463,55719,-7.765045442346341,42.7032988244299,joint,220000,50,,Red Eléctrica Española,,SRID=4326;POINT(-7.76504544234634 42.7032988244299),es,galicia,taboada,provincia de lugo
7632,42972,-8.64396991838144,42.5851460990146,substation,220000;66000,50,,Red Eléctrica de España;Unión Fenosa Distribución,,SRID=4326;POINT(-8.64396991838144 42.5851460990146),es,galicia,portas,provincia de pontevedra
7792,23519,-7.74353578027763,42.6139500611248,joint,220000,50,,Red Eléctrica de España,,SRID=4326;POINT(-7.74353578027763 42.6139500611248),es,galicia,chantada,provincia de lugo
7900,64229,-8.07359253618061,42.2721253780467,joint,220000,50,,Red Eléctrica de España,,SRID=4326;POINT(-8.07359253618061 42.2721253780467),es,galicia,cartelle,provincia de ourense
8202,39742,-8.578327746191441,42.8547488245244,substation,220000,50,Subestación Eléctrica de Santiago,,,SRID=4326;POINT(-8.57832774619144 42.8547488245244),es,galicia,santiago de compostela,provincia da coruna
8204,29168,-8.43524690097736,43.1725636352661,joint,220000,,,,,SRID=4326;POINT(-8.43524690097736 43.1725636352661),es,galicia,cerceda,provincia da coruna
8273,42922,-8.05740442925697,42.2564354061899,substation,400000,50,Subestación de Cartelle,Red Eléctrica de España,,SRID=4326;POINT(-8.05740442925697 42.2564354061899),es,galicia,cartelle,provincia de ourense
8456,43835,-8.44072650024121,43.344892732482,substation,,50,,,,SRID=4326;POINT(-8.44072650024121 43.344892732482),es,galicia,a coruna,provincia da coruna
8499,41055,-8.35615394622001,43.1673424092361,substation,400000;220000,50,Subestación Mesón do Vento,Red Eléctrica de España,,SRID=4326;POINT(-8.35615394622001 43.1673424092361),es,galicia,carral,provincia da coruna
8764,8875,-8.113705636889259,42.2916322961109,substation,220000,50,,,,SRID=4326;POINT(-8.11370563688926 42.2916322961109),es,galicia,ribadavia,provincia de ourense
8863,39283,-8.664856255045759,42.4173584074005,substation,220000,50,,,,SRID=4326;POINT(-8.66485625504576 42.4173584074005),es,galicia,poio,provincia de pontevedra
9162,30618,-8.368826189926232,43.146949801042204,joint,220000,50,,Red Eléctrica de España,,SRID=4326;POINT(-8.36882618992623 43.1469498010422),es,galicia,ordes,provincia da coruna
9306,57378,-8.591972377741,42.2650649678784,joint,220000,50,,Red Eléctrica de España,,SRID=4326;POINT(-8.591972377741 42.2650649678784),es,galicia,redondela,provincia de pontevedra
9490,42977,-9.04831011445489,43.101343351333,substation,220000;66000;20000,50,Subestación de Vimianzo,Red Eléctrica de España;Unión Fenosa Distribución,,SRID=4326;POINT(-9.04831011445489 43.101343351333),es,galicia,vimianzo,provincia da coruna
9569,46587,-7.23415401952116,42.3746481043856,substation,132000,50,,,,SRID=4326;POINT(-7.23415401952116 42.3746481043856),es,galicia,manzaneda,provincia de ourense
9609,45883,-7.46660300974197,43.69819654501929,sub_station,,,,Alcoa,,SRID=4326;POINT(-7.46660300974197 43.6981965450193),es,galicia,xove,provincia de lugo
9772,23918,-7.76210368770579,42.6243028072789,joint,220000,50,,,,SRID=4326;POINT(-7.76210368770579 42.6243028072789),es,galicia,chantada,provincia de lugo
9803,1354,-8.403695824815319,43.3033812131813,sub_station,,,,,,SRID=4326;POINT(-8.40369582481532 43.3033812131813),es,galicia,culleredo,provincia da coruna
9840,63354,-8.598247918484331,42.8901749732963,joint,220000,,,,,SRID=4326;POINT(-8.59824791848433 42.8901749732963),es,galicia,ames,provincia da coruna
9981,57404,-8.84072585121335,42.834291303483504,joint,220000,,,,,SRID=4326;POINT(-8.84072585121335 42.8342913034835),es,galicia,lousame,provincia da coruna
10124,35370,-8.378389384946379,43.150207508851395,sub_station,,,,,,SRID=4326;POINT(-8.37838938494638 43.1502075088514),es,galicia,ordes,provincia da coruna
10311,42973,-8.20648527723313,42.5499317510452,station,,,,,,SRID=4326;POINT(-8.20648527723313 42.5499317510452),es,galicia,boboras,provincia de ourense
10422,68195,-7.898606491596481,43.03621730248239,joint,,,,,,SRID=4326;POINT(-7.89860649159648 43.0362173024824),es,galicia,friol,provincia de lugo
10630,64903,-8.20200383143659,42.8525109095075,joint,220000;66000;220000;66000,50,,Red Eléctrica de España,,SRID=4326;POINT(-8.20200383143659 42.8525109095075),es,galicia,arzua,provincia da coruna
10750,54968,-7.863210659144929,43.4401225023028,merge,400000,50,Central térmica de Puentes de García Rodríguez;Central de Ciclo Combinado Endesa - As Pontes,Endesa,,SRID=4326;POINT(-7.86321065914493 43.4401225023028),es,galicia,as pontes de garcia rodriguez,provincia da coruna
11047,65046,-8.35861054851522,42.84978829207979,joint,66000;220000,50,,,,SRID=4326;POINT(-8.35861054851522 42.8497882920798),es,galicia,touro,provincia da coruna
11304,5439,-6.91979266689182,42.4141598970746,substation,,,,,,SRID=4326;POINT(-6.91979266689182 42.4141598970746),es,galicia,o barco de valdeorras,provincia de ourense
11326,41069,-7.2227756206894504,42.314450110459596,substation,220000,50,,Subestación Puente Bibei,,SRID=4326;POINT(-7.22277562068945 42.3144501104596),es,galicia,manzaneda,provincia de ourense
11638,54280,-8.157777853420889,42.397859008136,merge,220000,50,,,,SRID=4326;POINT(-8.15777785342089 42.397859008136),es,galicia,boboras,provincia de ourense
11711,65959,-6.930209027210309,42.420197360045,joint,220000,50,,Red Eléctrica de España,,SRID=4326;POINT(-6.93020902721031 42.420197360045),es,galicia,o barco de valdeorras,provincia de ourense
12382,62647,-8.34892391192202,43.1847018229235,joint,220000,50,,Red Eléctrica Española,,SRID=4326;POINT(-8.34892391192202 43.1847018229235),es,galicia,carral,provincia da coruna
12588,64597,-8.3539070595191,43.165909261536704,joint,400000,50,,Red Eléctrica de España,,SRID=4326;POINT(-8.3539070595191 43.1659092615367),es,galicia,carral,provincia da coruna
12691,28278,-8.359511648576719,43.16635978187939,joint,220000,50,,Red Eléctrica de España,,SRID=4326;POINT(-8.35951164857672 43.1663597818794),es,galicia,carral,provincia da coruna
12692,28718,-8.20547982176459,43.0696663125025,joint,220000,50,,Red Eléctrica Española,,SRID=4326;POINT(-8.20547982176459 43.0696663125025),es,galicia,mesia,provincia da coruna
12806,11918,-7.7753182982720705,43.4925511915307,station,,,,,,SRID=4326;POINT(-7.77531829827207 43.4925511915307),es,galicia,muras,provincia de lugo
12900,30262,-8.593154380991841,42.2682701069482,joint,220000,50,,Red Eléctrica de España,,SRID=4326;POINT(-8.59315438099184 42.2682701069482),es,galicia,redondela,provincia de pontevedra
12989,23503,-8.080452161521679,42.2880925578881,joint,220000,50,,Red Eléctrica de España,,SRID=4326;POINT(-8.08045216152168 42.2880925578881),es,galicia,castrelo de mino,provincia de ourense
12996,24028,-8.49332083054345,43.32908088843511,joint,66000,50,,,,SRID=4326;POINT(-8.49332083054345 43.3290808884351),es,galicia,arteixo,provincia da coruna
13038,23919,-7.7647751875292395,42.624348085029,joint,,,,,,SRID=4326;POINT(-7.76477518752924 42.624348085029),es,galicia,chantada,provincia de lugo
13044,8927,-9.030024339109339,42.8914825437424,substation,220000,50,,,,SRID=4326;POINT(-9.03002433910934 42.8914825437424),es,galicia,mazaricos,provincia da coruna
13449,23502,-8.13068640136729,42.2758008178203,joint,220000,50,,Red Eléctrica de España,,SRID=4326;POINT(-8.13068640136729 42.2758008178203),es,galicia,ribadavia,provincia de ourense
13493,64487,-8.40402272174721,43.3040138927188,joint,,,,,,SRID=4326;POINT(-8.40402272174721 43.3040138927188),es,galicia,culleredo,provincia da coruna
13553,54405,-8.01461764804092,42.991744418230496,merge,,,,,,SRID=4326;POINT(-8.01461764804092 42.9917444182305),es,galicia,sobrado,provincia da coruna
13565,8441,-8.20808061992331,41.8681954917029,substation,400000,50,,,,SRID=4326;POINT(-8.20808061992331 41.8681954917029),es,galicia,entrimo,provincia de ourense
13658,64224,-8.580667708711049,42.3905592619516,joint,220000,50,,Red Eléctrica de España,,SRID=4326;POINT(-8.58066770871105 42.3905592619516),es,galicia,pontevedra,provincia de pontevedra
13711,45893,-7.81245858615626,43.525973855136606,station,,,,,,SRID=4326;POINT(-7.81245858615626 43.5259738551366),es,galicia,as pontes de garcia rodriguez,provincia da coruna
