,v_id,lon,lat,typ,voltage,frequency,name,operator,ref,wkt_srid_4326,country,state,town,admin2
60,30559,0.8990013275020029,49.36063196262,joint,225000;90000;225000,,,RTE,,SRID=4326;POINT(0.899001327502003 49.36063196262),fr,haute-normandie,caumont,departement de l'eure
622,39785,1.01233637766046,49.657132649113706,substation,400000,,Poste électrique de Barnabos,RTE,,SRID=4326;POINT(1.01233637766046 49.6571326491137),fr,haute-normandie,totes,departement de la seine-maritime
1035,63333,0.769207631637557,49.53991526290049,joint,225000,,,RTE,,SRID=4326;POINT(0.769207631637557 49.5399152629005),fr,haute-normandie,saint-wandrille-rancon,departement de la seine-maritime
1325,37225,0.29540818974992794,49.475586505676795,substation,225000;90000,,Poste électrique de Sandouville,RTE,,SRID=4326;POINT(0.295408189749928 49.4755865056768),fr,haute-normandie,rogerville,departement de la seine-maritime
1406,61365,0.20252149771208103,49.4987300131987,joint,225000,,,RTE,,SRID=4326;POINT(0.202521497712081 49.4987300131987),fr,haute-normandie,harfleur,departement de la seine-maritime
1742,5672,1.2274827230884,49.9686031356241,substation,400000,,Poste Électrique de Penly,RTE,,SRID=4326;POINT(1.2274827230884 49.9686031356241),fr,haute-normandie,saint-martin-en-campagne,departement de la seine-maritime
1751,23987,0.896483978581315,49.3621068992885,joint,225000;225000;90000;90000,,,RTE,,SRID=4326;POINT(0.896483978581315 49.3621068992885),fr,haute-normandie,caumont,departement de l'eure
1814,55992,0.534283306708384,49.4931701299901,joint,225000;90000,,,,,SRID=4326;POINT(0.534283306708384 49.4931701299901),fr,haute-normandie,quillebeuf-sur-seine,departement de l'eure
2015,5677,0.735476659600931,49.343471807189,substation,400000;225000,,Poste électrique de Rougemontiers,RTE,,SRID=4326;POINT(0.735476659600931 49.343471807189),fr,haute-normandie,hauville,departement de l'eure
2055,61363,0.19879025534796202,49.526087760037406,joint,225000;90000;90000;225000,,,RTE,,SRID=4326;POINT(0.198790255347962 49.5260877600374),fr,haute-normandie,harfleur,departement de la seine-maritime
2230,37287,1.10515081867349,49.3686761282298,substation,225000,,Poste Électrique de Saint-Etienne-du-Rouvray,,,SRID=4326;POINT(1.10515081867349 49.3686761282298),fr,haute-normandie,saint-etienne-du-rouvray,departement de la seine-maritime
2299,2957,0.9687060366892258,49.030979679425705,substation,400000;90000,,Poste électrique de Tilleul,RTE,,SRID=4326;POINT(0.968706036689226 49.0309796794257),fr,haute-normandie,claville,departement de l'eure
2336,41678,0.99318018435795,49.3505019028258,substation,225000,,Poste électrique de Grand-Couronne,,,SRID=4326;POINT(0.99318018435795 49.3505019028258),fr,haute-normandie,grand-couronne,departement de la seine-maritime
2471,57855,0.9133671855256429,49.368750703518295,joint,225000,,,RTE,,SRID=4326;POINT(0.913367185525643 49.3687507035183),fr,haute-normandie,caumont,departement de l'eure
2550,23981,1.21481295895553,49.3279958821433,joint,225000,,,RTE,,SRID=4326;POINT(1.21481295895553 49.3279958821433),fr,haute-normandie,le manoir,departement de l'eure
2800,30560,0.865497760665482,49.37576729693521,joint,225000;225000;90000;90000,,,RTE,,SRID=4326;POINT(0.865497760665482 49.3757672969352),fr,haute-normandie,saint-ouen-de-thouberville,departement de l'eure
3156,57858,0.99573155796988,49.4772115149173,joint,225000,,,RTE,,SRID=4326;POINT(0.99573155796988 49.4772115149173),fr,haute-normandie,la vaupaliere,departement de la seine-maritime
3315,833,1.07763527433642,49.447277410164006,substation,225000;20000,,Poste Électrique de l'Hôtel Dieu,ERDF,,SRID=4326;POINT(1.07763527433642 49.447277410164),fr,haute-normandie,rouen,departement de la seine-maritime
3527,54450,0.146957296491645,49.4753386261204,merge,400000,,Poste Électrique du Havre;Centrale Thermique du Havre,EDF,,SRID=4326;POINT(0.146957296491645 49.4753386261204),fr,haute-normandie,le havre,departement de la seine-maritime
3804,57860,1.0021568478710698,49.4813697134972,joint,225000,,,RTE,,SRID=4326;POINT(1.00215684787107 49.4813697134972),fr,haute-normandie,la vaupaliere,departement de la seine-maritime
4110,28380,0.208583598743905,49.5369483869207,joint,225000;90000;90000,,,RTE,,SRID=4326;POINT(0.208583598743905 49.5369483869207),fr,haute-normandie,montivilliers,departement de la seine-maritime
4223,23027,0.724070685426369,49.35100090201429,joint,225000,,,RTE,,SRID=4326;POINT(0.724070685426369 49.3510009020143),fr,haute-normandie,hauville,departement de l'eure
4414,10249,1.21770456907351,49.3173051660235,substation,,,Poste électrique du Manoir,,,SRID=4326;POINT(1.21770456907351 49.3173051660235),fr,haute-normandie,le manoir,departement de l'eure
4601,57874,1.5093112518095702,49.2010113107054,joint,225000,,,RTE,,SRID=4326;POINT(1.50931125180957 49.2010113107054),fr,haute-normandie,les andelys,departement de l'eure
4970,62322,0.274312699262231,49.550125370531205,joint,225000;90000;225000;90000;90000,,,RTE,,SRID=4326;POINT(0.274312699262231 49.5501253705312),fr,haute-normandie,maneglise,departement de la seine-maritime
5002,23990,0.8688425477943721,49.375455667169895,joint,225000;0,,,,,SRID=4326;POINT(0.868842547794372 49.3754556671699),fr,haute-normandie,saint-ouen-de-thouberville,departement de l'eure
5033,68045,0.7128679751811721,49.3511436865838,joint,225000,,,RTE,,SRID=4326;POINT(0.712867975181172 49.3511436865838),fr,haute-normandie,hauville,departement de l'eure
5102,3144,0.27405993469976897,49.551987399983204,substation,225000;90000,,Poste électrique de Sainneville,RTE,,SRID=4326;POINT(0.274059934699769 49.5519873999832),fr,haute-normandie,maneglise,departement de la seine-maritime
5270,10130,1.01656818617498,49.419898551528796,substation,,,Poste Électrique de Dieppedalle,,,SRID=4326;POINT(1.01656818617498 49.4198985515288),fr,haute-normandie,canteleu,departement de la seine-maritime
5440,62320,0.309089897508578,49.5110754630239,joint,225000,,,RTE,,SRID=4326;POINT(0.309089897508578 49.5110754630239),fr,haute-normandie,saint-aubin-routot,departement de la seine-maritime
5538,48978,0.551226680837693,49.4822697244561,substation,,,,,,SRID=4326;POINT(0.551226680837693 49.4822697244561),fr,haute-normandie,notre-dame-de-gravenchon,departement de la seine-maritime
6069,62321,0.318522657149475,49.5106797662696,joint,225000,,,,,SRID=4326;POINT(0.318522657149475 49.5106797662696),fr,haute-normandie,saint-aubin-routot,departement de la seine-maritime
6192,44250,0.833016729908143,49.380036000006506,substation,,,Poste Électrique de Ganterie,,,SRID=4326;POINT(0.833016729908143 49.3800360000065),fr,haute-normandie,bourg-achard,departement de l'eure
6280,43198,1.04022666167406,49.316500827107106,substation,225000,,Poste électrique de Cléon,,,SRID=4326;POINT(1.04022666167406 49.3165008271071),fr,haute-normandie,cleon,departement de la seine-maritime
6328,46401,1.0221926000444101,49.41928728752279,substation,,,Poste Électrique du Grand-Quevilly,,,SRID=4326;POINT(1.02219260004441 49.4192872875228),fr,haute-normandie,canteleu,departement de la seine-maritime
6451,3148,0.18038327194733703,49.4952375588431,substation,225000;90000;20000,,Poste Électrique du Pont VII,RTE,,SRID=4326;POINT(0.180383271947337 49.4952375588431),fr,haute-normandie,harfleur,departement de la seine-maritime
6820,10291,1.11761955340391,49.3647657078287,substation,,,Poste Électrique de la Chapelle Darblay 225 kV,,,SRID=4326;POINT(1.11761955340391 49.3647657078287),fr,haute-normandie,saint-etienne-du-rouvray,departement de la seine-maritime
7216,62187,0.7323582727430709,49.349294477300795,joint,225000,,,RTE,,SRID=4326;POINT(0.732358272743071 49.3492944773008),fr,haute-normandie,hauville,departement de l'eure
7543,27387,0.31332985581809397,49.510824711575395,joint,225000,,,,,SRID=4326;POINT(0.313329855818094 49.5108247115754),fr,haute-normandie,saint-aubin-routot,departement de la seine-maritime
7619,9144,0.815987165290114,49.0330887533503,station,225000,,Poste électrique de Barquet,,,SRID=4326;POINT(0.815987165290114 49.0330887533503),fr,haute-normandie,beaumont-le-roger,departement de l'eure
8637,29102,1.2146905004050301,49.326022565545905,joint,225000,,,RTE,,SRID=4326;POINT(1.21469050040503 49.3260225655459),fr,haute-normandie,le manoir,departement de l'eure
8889,57857,0.8653584319649151,49.3753796895683,joint,225000;0;0;225000,,,RTE,,SRID=4326;POINT(0.865358431964915 49.3753796895683),fr,haute-normandie,saint-ouen-de-thouberville,departement de l'eure
8996,64558,0.813685360528735,49.456858016647395,joint,90000;225000;90000;225000;90000,,,RTE,,SRID=4326;POINT(0.813685360528735 49.4568580166474),fr,haute-normandie,le trait,departement de la seine-maritime
9351,38779,1.2141303280922,49.977781876932404,plant,,,CNPE de Penly,EDF,,SRID=4326;POINT(1.2141303280922 49.9777818769324),fr,haute-normandie,saint-martin-en-campagne,departement de la seine-maritime
9436,39791,1.0104692818724799,49.4834531566731,substation,400000;225000;90000;20000,,Poste Électrique de La Vaupalière,RTE,,SRID=4326;POINT(1.01046928187248 49.4834531566731),fr,haute-normandie,maromme,departement de la seine-maritime
9720,67447,0.19820661990787,49.49837517328421,joint,225000,,,RTE,,SRID=4326;POINT(0.19820661990787 49.4983751732842),fr,haute-normandie,harfleur,departement de la seine-maritime
9753,44253,1.05270926357931,49.453773182308204,substation,,,,RTE,,SRID=4326;POINT(1.05270926357931 49.4537731823082),fr,haute-normandie,deville-les-rouen,departement de la seine-maritime
10557,30561,0.7771587830980942,49.54799351688929,joint,225000,,,RTE,,SRID=4326;POINT(0.777158783098094 49.5479935168893),fr,haute-normandie,saint-wandrille-rancon,departement de la seine-maritime
10578,57859,1.00232375485086,49.4811580883709,joint,225000,,,RTE,,SRID=4326;POINT(1.00232375485086 49.4811580883709),fr,haute-normandie,la vaupaliere,departement de la seine-maritime
10612,43166,0.8827039693533442,49.2814354592038,substation,225000,,Poste électrique de Boscherville,,,SRID=4326;POINT(0.882703969353344 49.2814354592038),fr,haute-normandie,bourgtheroulde-infreville,departement de l'eure
10874,33939,0.190710987345648,49.498390809164896,joint,225000,,,RTE,,SRID=4326;POINT(0.190710987345648 49.4983908091649),fr,haute-normandie,harfleur,departement de la seine-maritime
11241,57853,0.551416733606808,49.4940426750064,joint,225000;90000,,,RTE,,SRID=4326;POINT(0.551416733606808 49.4940426750064),fr,haute-normandie,notre-dame-de-gravenchon,departement de la seine-maritime
11535,14790,0.635019889754775,49.858311017165605,plant,,,Centrale nucléaire de Paluel,EDF,,SRID=4326;POINT(0.635019889754775 49.8583110171656),fr,haute-normandie,cany-barville,departement de la seine-maritime
11678,23989,0.92139480039912,49.3706239832469,joint,225000,,,RTE,,SRID=4326;POINT(0.92139480039912 49.3706239832469),fr,haute-normandie,sahurs,departement de la seine-maritime
11823,55990,1.0441467381829799,49.3202440911691,joint,225000;90000,,,RTE,,SRID=4326;POINT(1.04414673818298 49.3202440911691),fr,haute-normandie,cleon,departement de la seine-maritime
11971,56754,0.7334355324317869,49.3533837700755,joint,225000;0,,,RTE,,SRID=4326;POINT(0.733435532431787 49.3533837700755),fr,haute-normandie,hauville,departement de l'eure
12314,37228,0.22843655088925,49.4792586736463,substation,,,Poste Électrique de Ratier,RTE,,SRID=4326;POINT(0.22843655088925 49.4792586736463),fr,haute-normandie,harfleur,departement de la seine-maritime
12756,8624,1.37197883350728,49.127560513835896,substation,225000,,Poste électrique de Saint-Pierre-de-Bailleul,RTE,,SRID=4326;POINT(1.37197883350728 49.1275605138359),fr,haute-normandie,la chapelle-reanville,departement de l'eure
12812,56900,0.720027547995604,49.3515007632298,joint,225000,,,RTE,,SRID=4326;POINT(0.720027547995604 49.3515007632298),fr,haute-normandie,hauville,departement de l'eure
12833,55556,0.7196638921416401,49.3514826263146,joint,225000,,,RTE,,SRID=4326;POINT(0.71966389214164 49.3514826263146),fr,haute-normandie,hauville,departement de l'eure
13034,54013,1.00702832182532,49.369218386679,merge,,,Poste électrique de Darblay,,,SRID=4326;POINT(1.00702832182532 49.369218386679),fr,haute-normandie,grand-couronne,departement de la seine-maritime
13151,23988,0.8965180247305842,49.363287460312904,joint,225000;0,,,RTE,,SRID=4326;POINT(0.896518024730584 49.3632874603129),fr,haute-normandie,caumont,departement de l'eure
13403,54282,0.8218481875803871,49.4597632265569,merge,225000;90000,,Poste électrique de Yainville,RTE,,SRID=4326;POINT(0.821848187580387 49.4597632265569),fr,haute-normandie,yainville,departement de la seine-maritime
