,v_id,lon,lat,typ,voltage,frequency,name,operator,ref,wkt_srid_4326,country,state,town,admin2
177,27831,-91.67521363308859,42.0349236909659,joint,,,,,,SRID=4326;POINT(-91.6752136330886 42.0349236909659),us,iowa,hiawatha,linn county
468,13885,-91.3796045509276,41.9718350538894,sub_station,,,,,,SRID=4326;POINT(-91.3796045509276 41.9718350538894),us,iowa,lisbon,linn county
644,7961,-94.6062740803319,41.4652790132214,sub_station,,,,,,SRID=4326;POINT(-94.6062740803319 41.4652790132214),us,iowa,greenfield,adair county
736,5820,-93.5272139389492,41.5417270537351,substation,,,SE Polk Substation,Mid-American Energy,,SRID=4326;POINT(-93.5272139389492 41.5417270537351),us,iowa,pleasant hill,polk county
830,862,-93.50197919402599,41.604621871614,sub_station,,,,,,SRID=4326;POINT(-93.501979194026 41.604621871614),us,iowa,pleasant hill,polk county
840,22997,-93.92372957774771,41.5071149949156,joint,345000;161000,60,,,,SRID=4326;POINT(-93.9237295777477 41.5071149949156),us,iowa,van meter,dallas county
970,3716,-90.690354792083,41.574833178445,station,,,,,,SRID=4326;POINT(-90.690354792083 41.574833178445),us,iowa,walcott,scott county
992,23003,-95.3494976877972,41.4673789689267,joint,345000;161000;345000;161000,60,,,,SRID=4326;POINT(-95.3494976877972 41.4673789689267),us,iowa,avoca,pottawattamie county
1197,30971,-91.12175433894079,41.338141240883296,joint,345000,60,,,,SRID=4326;POINT(-91.1217543389408 41.3381412408833),us,iowa,muscatine,muscatine county
1207,5821,-93.5239537615122,41.5536798682545,sub_station,,,,,,SRID=4326;POINT(-93.5239537615122 41.5536798682545),us,iowa,pleasant hill,polk county
1208,860,-93.49891367148291,41.6432493468756,sub_station,,,,,,SRID=4326;POINT(-93.4989136714829 41.6432493468756),us,iowa,altoona,polk county
1680,12757,-91.08719866445541,41.3084964405964,sub_station,,,,,,SRID=4326;POINT(-91.0871986644554 41.3084964405964),us,iowa,muscatine,muscatine county
1916,545,-93.75475240784658,41.661255169120295,station,,,,,,SRID=4326;POINT(-93.7547524078466 41.6612551691203),us,iowa,grimes,polk county
1931,19542,-93.5221942340134,41.5572407914555,joint,161000;345000;161000;345000,60,,,,SRID=4326;POINT(-93.5221942340134 41.5572407914555),us,iowa,pleasant hill,polk county
2157,15911,-92.35548146871609,42.593588988295004,substation,,,,,,SRID=4326;POINT(-92.3554814687161 42.593588988295),us,iowa,denver,bremer county
2194,7471,-96.3613631789026,42.3019316245743,substation,,,,,,SRID=4326;POINT(-96.3613631789026 42.3019316245743),us,iowa,sergeant bluff,woodbury county
2280,9250,-91.63888663857651,41.9447387623226,station,,,,,,SRID=4326;POINT(-91.6388866385765 41.9447387623226),us,iowa,cedar rapids,linn county
2352,8122,-91.35206926872699,40.7838515101804,sub_station,,,,,,SRID=4326;POINT(-91.352069268727 40.7838515101804),us,iowa,new london,henry county
2362,9888,-91.6635320543362,42.0074210328575,station,,,,,,SRID=4326;POINT(-91.6635320543362 42.0074210328575),us,iowa,cedar rapids,linn county
2945,13899,-90.66454368683421,41.8443087260431,sub_station,,,,,,SRID=4326;POINT(-90.6645436868342 41.8443087260431),us,iowa,de witt,clinton county
3017,9167,-91.7010584192214,41.930161984706295,substation,,,,,,SRID=4326;POINT(-91.7010584192214 41.9301619847063),us,iowa,fairfax,linn county
3219,19113,-96.3456469623742,42.3594899122867,joint,345000,,,,,SRID=4326;POINT(-96.3456469623742 42.3594899122867),us,iowa,sergeant bluff,woodbury county
3284,22625,-91.69353854623249,42.007681266670296,joint,,,,,,SRID=4326;POINT(-91.6935385462325 42.0076812666703),us,iowa,hiawatha,linn county
3344,8664,-96.40137693496409,43.0678782913317,station,,,,,,SRID=4326;POINT(-96.4013769349641 43.0678782913317),us,iowa,hawarden,sioux county
3399,13919,-91.5056273413143,41.598095609857396,sub_station,,,,,,SRID=4326;POINT(-91.5056273413143 41.5980956098574),us,iowa,iowa city,johnson county
3503,25979,-91.5546736458467,41.9642946805918,joint,,,,,,SRID=4326;POINT(-91.5546736458467 41.9642946805918),us,iowa,marion,linn county
3873,6585,-93.0959589853308,41.57229095261,sub_station,,,,,,SRID=4326;POINT(-93.0959589853308 41.57229095261),us,iowa,monroe,jasper county
4023,12758,-91.1013107714001,41.3512086220723,substation,,,,,,SRID=4326;POINT(-91.1013107714001 41.3512086220723),us,iowa,muscatine,muscatine county
4109,15888,-92.69848960360729,41.5714125891949,substation,,,,,,SRID=4326;POINT(-92.6984896036073 41.5714125891949),us,iowa,new sharon,mahaska county
4344,7240,-91.6671855797322,41.986784869223,station,,,,,,SRID=4326;POINT(-91.6671855797322 41.986784869223),us,iowa,cedar rapids,linn county
4417,11723,-91.9712082514773,41.035407916840704,sub_station,,,,,,SRID=4326;POINT(-91.9712082514773 41.0354079168407),us,iowa,fairfield,jefferson county
4476,8089,-90.4958124250127,42.2566361091879,sub_station,,,,,,SRID=4326;POINT(-90.4958124250127 42.2566361091879),us,iowa,bellevue,jackson county
4485,4895,-93.5916004223057,41.6726062050107,substation,,,,,,SRID=4326;POINT(-93.5916004223057 41.6726062050107),us,iowa,saylorville,polk county
4550,10114,-91.55706741459329,41.9582647538187,station,,,,,,SRID=4326;POINT(-91.5570674145933 41.9582647538187),us,iowa,marion,linn county
4606,28136,-94.1164654014709,42.3713606480655,merge,,,Lehigh Substation,,,SRID=4326;POINT(-94.1164654014709 42.3713606480655),us,iowa,fort dodge,webster county
4691,13904,-90.6855282953973,41.8224962763604,sub_station,,,,,,SRID=4326;POINT(-90.6855282953973 41.8224962763604),us,iowa,de witt,clinton county
4704,23002,-95.3464941706447,41.4672769885668,joint,345000;161000,60,,,,SRID=4326;POINT(-95.3464941706447 41.4672769885668),us,iowa,avoca,pottawattamie county
5307,1865,-95.1639011438137,41.476616497733296,sub_station,,,,,,SRID=4326;POINT(-95.1639011438137 41.4766164977333),us,iowa,atlantic,cass county
5566,28813,-90.27972014473958,41.713094486435,merge,,,,,,SRID=4326;POINT(-90.2797201447396 41.713094486435),us,iowa,camanche,clinton county
5657,3410,-91.6046906868303,42.0232475969395,station,,,,,,SRID=4326;POINT(-91.6046906868303 42.0232475969395),us,iowa,marion,linn county
5880,23006,-94.0995272737356,42.552253191001,joint,161000;345000;161000;345000,60,,,,SRID=4326;POINT(-94.0995272737356 42.552253191001),us,iowa,fort dodge,webster county
6096,7956,-93.8119634724138,41.6600848817677,sub_station,,,Grimes Substation,Mid-American Energy,,SRID=4326;POINT(-93.8119634724138 41.6600848817677),us,iowa,grimes,polk county
6142,8125,-91.5551449880321,41.3347787471741,sub_station,,,Sub T,Mid-American Energy,,SRID=4326;POINT(-91.5551449880321 41.3347787471741),us,iowa,washington,washington county
6366,13071,-92.6627630013288,40.7079092455645,sub_station,,,,,,SRID=4326;POINT(-92.6627630013288 40.7079092455645),us,iowa,centerville,appanoose county
6369,814,-93.4977980135935,41.6749852106804,station,,,Bondurant Substation,MEC,,SRID=4326;POINT(-93.4977980135935 41.6749852106804),us,iowa,bondurant,polk county
6451,3709,-91.6823620927977,41.707112344726504,station,,,Tiffin Substation,,,SRID=4326;POINT(-91.6823620927977 41.7071123447265),us,iowa,tiffin,johnson county
6827,7957,-93.90864646748459,41.336246811146495,substation,,,Madison County Substation,,,SRID=4326;POINT(-93.9086464674846 41.3362468111465),us,iowa,buffalo (historical),madison county
6917,13711,-91.6991597990386,42.0453961857947,substation,,,,,,SRID=4326;POINT(-91.6991597990386 42.0453961857947),us,iowa,hiawatha,linn county
6928,8638,-96.32940928644491,42.5949205770552,sub_station,,,,,,SRID=4326;POINT(-96.3294092864449 42.5949205770552),us,iowa,sioux city,woodbury county
7178,3740,-91.7812116026797,42.100075056325394,substation,,,Arnold Substation,,,SRID=4326;POINT(-91.7812116026797 42.1000750563254),us,iowa,palo,linn county
7340,7964,-94.1861389198436,41.476077381176296,sub_station,,,,,,SRID=4326;POINT(-94.1861389198436 41.4760773811763),us,iowa,earlham,madison county
7671,8150,-91.2236865830347,41.554896849101794,substation,,,Sub 92,Mid-American Energy,,SRID=4326;POINT(-91.2236865830347 41.5548968491018),us,iowa,west liberty,muscatine county
7685,19114,-96.32083091281879,42.3593298713906,joint,345000,,,,,SRID=4326;POINT(-96.3208309128188 42.3593298713906),us,iowa,sergeant bluff,woodbury county
7854,3737,-92.56353823611842,41.6104903430505,station,,,Montezuma Switching Station,,,SRID=4326;POINT(-92.5635382361184 41.6104903430505),us,iowa,montezuma,poweshiek county
7868,23046,-90.3011080841865,42.0106436195245,joint,345000;161000;161000;345000,60,,,,SRID=4326;POINT(-90.3011080841865 42.0106436195245),us,iowa,preston,jackson county
7902,22996,-93.90705684607441,41.3416296927226,joint,345000;161000,60,,,,SRID=4326;POINT(-93.9070568460744 41.3416296927226),us,iowa,buffalo (historical),madison county
8214,8565,-92.372923853904,41.004350520239,sub_station,,,,,,SRID=4326;POINT(-92.372923853904 41.004350520239),us,iowa,ottumwa,wapello county
8439,3723,-90.3062703567472,41.7265190631724,station,,,Quad Cities Substation,,,SRID=4326;POINT(-90.3062703567472 41.7265190631724),us,iowa,camanche,clinton county
8545,3738,-92.55474281265751,41.092877201091596,station,,,Ottumwa Generation Station,,,SRID=4326;POINT(-92.5547428126575 41.0928772010916),us,iowa,eddyville,wapello county
8647,23001,-95.66585369831292,41.2808290706239,joint,345000;161000;161000;161000;345000;161000,60,,,,SRID=4326;POINT(-95.6658536983129 41.2808290706239),us,iowa,council bluffs,pottawattamie county
8875,19115,-96.29616640905199,42.3274768096053,joint,345000,60,Raun - Lehigh 345kV,Mid-American Energy,,SRID=4326;POINT(-96.296166409052 42.3274768096053),us,iowa,sergeant bluff,woodbury county
8990,17227,-91.45769338600219,41.6861985400739,substation,,,,,,SRID=4326;POINT(-91.4576933860022 41.6861985400739),us,iowa,iowa city,johnson county
9007,17218,-91.6812636132285,41.941046923165004,substation,,,,,,SRID=4326;POINT(-91.6812636132285 41.941046923165),us,iowa,cedar rapids,linn county
9411,29105,-91.53891492337841,40.92371682067421,merge,,,,,,SRID=4326;POINT(-91.5389149233784 40.9237168206742),us,iowa,mount pleasant,henry county
9412,17851,-91.7018962021413,42.0222402630413,substation,,,,,,SRID=4326;POINT(-91.7018962021413 42.0222402630413),us,iowa,hiawatha,linn county
9463,7983,-94.09214084926191,42.5661283915195,sub_station,,,Webster Substation,,,SRID=4326;POINT(-94.0921408492619 42.5661283915195),us,iowa,fort dodge,webster county
9657,10297,-90.8214611120668,41.4802917296437,station,,,,,,SRID=4326;POINT(-90.8214611120668 41.4802917296437),us,iowa,blue grass,scott county
9708,3411,-91.6528215411241,42.04020470337429,sub_station,,,,,,SRID=4326;POINT(-91.6528215411241 42.0402047033743),us,iowa,hiawatha,linn county
9950,27865,-91.6486922217979,41.943745206183706,joint,,,,,,SRID=4326;POINT(-91.6486922217979 41.9437452061837),us,iowa,cedar rapids,linn county
10250,28823,-91.090524298591,41.3258624097343,merge,,,Louisa Substation;Louisa Generating Station,,,SRID=4326;POINT(-91.090524298591 41.3258624097343),us,iowa,muscatine,muscatine county
10412,1864,-94.66158506186208,41.4650818751523,sub_station,,,,,,SRID=4326;POINT(-94.6615850618621 41.4650818751523),us,iowa,greenfield,adair county
10467,3974,-95.4073591473456,41.9661860512584,station,,,,,,SRID=4326;POINT(-95.4073591473456 41.9661860512584),us,iowa,denison,crawford county
10912,27832,-91.69958160298029,42.044183716533,joint,,,,,,SRID=4326;POINT(-91.6995816029803 42.044183716533),us,iowa,hiawatha,linn county
10940,27864,-91.6395405450095,41.9416844085107,joint,,,,,,SRID=4326;POINT(-91.6395405450095 41.9416844085107),us,iowa,cedar rapids,linn county
11158,190,-96.36550811002822,42.3293664588257,station,,,Raun Substation,MidAmerican Energy,,SRID=4326;POINT(-96.3655081100282 42.3293664588257),us,iowa,sergeant bluff,woodbury county
11167,12814,-91.7384976288025,41.9580186543175,substation,,,,,,SRID=4326;POINT(-91.7384976288025 41.9580186543175),us,iowa,fairfax,linn county
11220,19541,-93.5227855051334,41.5553405118278,joint,345000,60,,,,SRID=4326;POINT(-93.5227855051334 41.5553405118278),us,iowa,pleasant hill,polk county
11639,9253,-91.64983091462271,41.9385401643014,station,,,,,,SRID=4326;POINT(-91.6498309146227 41.9385401643014),us,iowa,cedar rapids,linn county
11895,22998,-93.92370406559358,41.5101098948905,joint,345000,60,,,,SRID=4326;POINT(-93.9237040655936 41.5101098948905),us,iowa,van meter,dallas county
11983,3724,-90.52759679266849,41.6813086090898,station,,,Sub 91,Mid-American Energy,,SRID=4326;POINT(-90.5275967926685 41.6813086090898),us,iowa,park view,scott county
12188,31329,-93.67756174662641,41.67105905070971,joint,161000,60,,,,SRID=4326;POINT(-93.6775617466264 41.6710590507097),us,iowa,johnston,polk county
12240,3710,-91.53592281859329,41.5706736280574,station,345000;161000;69000,,Hills Substation,Mid-American Energy,,SRID=4326;POINT(-91.5359228185933 41.5706736280574),us,iowa,university heights,johnson county
12313,19112,-96.3009306241613,42.599850789525796,joint,,,,,,SRID=4326;POINT(-96.3009306241613 42.5998507895258),us,iowa,sioux city,woodbury county
12381,28428,-91.90209695720249,42.5858761767345,merge,,,Hazleton Substation,,,SRID=4326;POINT(-91.9020969572025 42.5858761767345),us,iowa,oelwein,fayette county
12511,20838,-91.6123553685553,42.0351791658684,joint,,,,,,SRID=4326;POINT(-91.6123553685553 42.0351791658684),us,iowa,marion,linn county
12709,13767,-90.6996392517581,42.0582627665393,substation,,,,,,SRID=4326;POINT(-90.6996392517581 42.0582627665393),us,iowa,maquoketa,jackson county
12714,1858,-95.25994581363209,42.686802771798604,sub_station,,,,,,SRID=4326;POINT(-95.2599458136321 42.6868027717986),us,iowa,alta,buena vista county
13113,30730,-91.6765096770475,41.9396292980866,joint,,,,,,SRID=4326;POINT(-91.6765096770475 41.9396292980866),us,iowa,cedar rapids,linn county
13418,28812,-90.29510028698971,41.7911760814833,merge,69000,,Sub 54;Rock Creek Substation,Mid-American Energy,,SRID=4326;POINT(-90.2951002869897 41.7911760814833),us,iowa,camanche,clinton county
13701,1856,-95.3273462997868,42.5533930862948,sub_station,,,,,,SRID=4326;POINT(-95.3273462997868 42.5533930862948),us,iowa,alta,buena vista county
13758,14039,-92.0644451341922,41.5643600356949,sub_station,,,,,,SRID=4326;POINT(-92.0644451341922 41.5643600356949),us,iowa,north english,iowa county
13785,8084,-90.2749652863451,41.7141570409486,sub_station,,,,,,SRID=4326;POINT(-90.2749652863451 41.7141570409486),us,iowa,camanche,clinton county
13834,7955,-93.5259858387723,41.5562500284646,sub_station,,,Greater Des Moines Energy Center Substation,,,SRID=4326;POINT(-93.5259858387723 41.5562500284646),us,iowa,pleasant hill,polk county
14224,1866,-95.226045184762,41.4661132900467,sub_station,,,,,,SRID=4326;POINT(-95.226045184762 41.4661132900467),us,iowa,avoca,pottawattamie county
14440,6627,-94.774946724014,41.1787067583626,substation,,,Rolling Hills Substation,,,SRID=4326;POINT(-94.774946724014 41.1787067583626),us,iowa,corning,adams county
14566,30419,-93.8970291322209,41.4999889709004,joint,345000;161000,60,,,,SRID=4326;POINT(-93.8970291322209 41.4999889709004),us,iowa,van meter,dallas county
14725,22607,-91.66619400864691,42.0406545154417,joint,,,,,,SRID=4326;POINT(-91.6661940086469 42.0406545154417),us,iowa,hiawatha,linn county
14750,29208,-96.30570484409272,42.601823025138394,merge,,,,,,SRID=4326;POINT(-96.3057048440927 42.6018230251384),us,iowa,sioux city,woodbury county
14831,12759,-91.0863901761199,41.3514966376318,substation,,,,,,SRID=4326;POINT(-91.0863901761199 41.3514966376318),us,iowa,muscatine,muscatine county
14890,29245,-91.0739553866926,42.0472061737951,merge,,,,,,SRID=4326;POINT(-91.0739553866926 42.0472061737951),us,iowa,anamosa,jones county
15010,1857,-95.2688289806477,42.554764816467205,sub_station,,,,,,SRID=4326;POINT(-95.2688289806477 42.5547648164672),us,iowa,storm lake,buena vista county
15110,1821,-93.680487924896,41.4588062623384,substation,,,Norwalk Substation,Mid-American Energy,,SRID=4326;POINT(-93.680487924896 41.4588062623384),us,iowa,norwalk,warren county
15609,8248,-91.736266877215,41.9859332437455,station,,,,,,SRID=4326;POINT(-91.736266877215 41.9859332437455),us,iowa,hiawatha,linn county
15614,9673,-91.6715541661158,42.061982542684,station,,,,,,SRID=4326;POINT(-91.6715541661158 42.061982542684),us,iowa,robins,linn county
15715,7056,-91.6097677206991,42.0408098447197,station,,,,,,SRID=4326;POINT(-91.6097677206991 42.0408098447197),us,iowa,marion,linn county
15857,7363,-93.9207778405513,41.5085227062299,sub_station,,,Booneville Substation,,,SRID=4326;POINT(-93.9207778405513 41.5085227062299),us,iowa,van meter,dallas county
16016,17219,-91.6394699089653,41.94061047240571,substation,,,,,,SRID=4326;POINT(-91.6394699089653 41.9406104724057),us,iowa,cedar rapids,linn county
