,v_id,lon,lat,typ,voltage,frequency,name,operator,ref,wkt_srid_4326,country,state,town,admin2
61,31172,-111.063349662897,47.496733073408606,joint,230000,60,,,,SRID=4326;POINT(-111.063349662897 47.4967330734086),us,montana,malmstrom air force base,cascade county
82,8017,-112.977338451866,44.988404904643204,sub_station,,,,,,SRID=4326;POINT(-112.977338451866 44.9884049046432),us,montana,dillon,beaverhead county
293,8673,-111.96037327616399,48.150276730728905,substation,,,,,,SRID=4326;POINT(-111.960373276164 48.1502767307289),us,montana,conrad,pondera county
460,31156,-112.695183295604,45.990287060810395,joint,230000,60,,,,SRID=4326;POINT(-112.695183295604 45.9902870608104),us,montana,butte-silver bow (balance),silver bow county
461,28971,-114.245319870972,47.677857192015296,merge,,,,,,SRID=4326;POINT(-114.245319870972 47.6778571920153),us,montana,polson,lake county
618,9681,-108.17516864093001,45.7827569448522,station,,,,,,SRID=4326;POINT(-108.17516864093 45.7827569448522),us,montana,lockwood,yellowstone county
812,2699,-115.30707897310499,48.394754878067104,substation,,,,,,SRID=4326;POINT(-115.307078973105 48.3947548780671),us,montana,libby,lincoln county
993,9646,-109.382058993478,46.2794720374578,sub_station,,,,,,SRID=4326;POINT(-109.382058993478 46.2794720374578),us,montana,ryegate,golden valley county
1027,4977,-113.96821453855,46.9110749619489,sub_station,,,Rattlesnake Substation,Northwest Energy,,SRID=4326;POINT(-113.96821453855 46.9110749619489),us,montana,missoula,missoula county
1110,20885,-115.172171186168,47.5673003956987,joint,230000,60,,,,SRID=4326;POINT(-115.172171186168 47.5673003956987),us,montana,thompson falls,sanders county
1135,9671,-112.55232070841299,46.97789312017451,station,,,,,,SRID=4326;POINT(-112.552320708413 46.9778931201745),us,montana,lincoln,lewis and clark county
1186,8618,-108.480061489042,45.7739984319009,substation,,,Billings Steam Plant Substation,Northwestern Energy,,SRID=4326;POINT(-108.480061489042 45.7739984319009),us,montana,billings,yellowstone county
1304,30305,-114.790679080062,47.5190858039967,joint,230000,,,,,SRID=4326;POINT(-114.790679080062 47.5190858039967),us,montana,plains,sanders county
1444,3028,-105.533505316763,47.4545653746643,station,,,,,,SRID=4326;POINT(-105.533505316763 47.4545653746643),us,montana,circle,mccone county
1746,9667,-114.252391829959,48.102087280251595,station,,,,,,SRID=4326;POINT(-114.252391829959 48.1020872802516),us,montana,somers,flathead county
2197,28929,-115.87033655920901,48.4418687411895,merge,,,,,,SRID=4326;POINT(-115.870336559209 48.4418687411895),us,montana,libby,lincoln county
2199,23676,-114.13223173643601,48.3719371852446,joint,230000,60,,,,SRID=4326;POINT(-114.132231736436 48.3719371852446),us,montana,columbia falls,flathead county
2363,9659,-112.011009841231,45.881901573843095,substation,,,,Northwest Energy,,SRID=4326;POINT(-112.011009841231 45.8819015738431),us,montana,whitehall,jefferson county
2555,8551,-112.69369304156099,45.9516317231485,sub_station,,,,,,SRID=4326;POINT(-112.693693041561 45.9516317231485),us,montana,butte-silver bow (balance),silver bow county
2597,28974,-114.142591319086,48.362683178592206,merge,,,,,,SRID=4326;POINT(-114.142591319086 48.3626831785922),us,montana,columbia falls,flathead county
2766,23672,-115.078326613888,48.3625586685833,joint,230000,60,,,,SRID=4326;POINT(-115.078326613888 48.3625586685833),us,montana,libby,lincoln county
2859,2278,-112.45801403793101,45.9203071145916,substation,,,,Northwest Energy,,SRID=4326;POINT(-112.458014037931 45.9203071145916),us,montana,butte,silver bow county
2899,6033,-111.677005590164,45.520735406692,sub_station,,,,,,SRID=4326;POINT(-111.677005590164 45.520735406692),us,montana,virginia city,madison county
3220,9665,-114.35368719135,47.8335134878366,sub_station,,,,,,SRID=4326;POINT(-114.35368719135 47.8335134878366),us,montana,lakeside,flathead county
3254,5150,-107.504766935926,46.12398717747,station,,,Custer Substation,WAPA,CU,SRID=4326;POINT(-107.504766935926 46.12398717747),us,montana,hysham,treasure county
3387,3436,-106.613606261835,45.89105579164929,sub_station,,,,,,SRID=4326;POINT(-106.613606261835 45.8910557916493),us,montana,colstrip,rosebud county
3550,9635,-115.548831077472,48.4030601496213,sub_station,,,,,,SRID=4326;POINT(-115.548831077472 48.4030601496213),us,montana,libby,lincoln county
3623,3460,-112.88811961636499,46.51566539601811,substation,,,Garrison Substation,,,SRID=4326;POINT(-112.888119616365 46.5156653960181),us,montana,deer lodge,powell county
3816,9657,-108.715888084493,45.7850870834641,station,,,,,,SRID=4326;POINT(-108.715888084493 45.7850870834641),us,montana,laurel,yellowstone county
3855,5944,-111.82357542875201,45.6771786552173,sub_station,,,,,,SRID=4326;POINT(-111.823575428752 45.6771786552173),us,montana,whitehall,jefferson county
4291,29676,-115.204113083246,47.580714361777204,joint,230000,60,,,,SRID=4326;POINT(-115.204113083246 47.5807143617772),us,montana,thompson falls,sanders county
4303,20886,-115.17560131324899,47.568070276850605,joint,230000,60,,,,SRID=4326;POINT(-115.175601313249 47.5680702768506),us,montana,thompson falls,sanders county
4320,9644,-108.71574645015998,45.8489757590938,station,,,Shorey Road Substation,,,SRID=4326;POINT(-108.71574645016 45.8489757590938),us,montana,laurel,yellowstone county
4375,9660,-112.51902403270701,45.9305729530539,substation,,,,Northwest Energy,,SRID=4326;POINT(-112.519024032707 45.9305729530539),us,montana,butte,silver bow county
4755,5155,-106.48641191393101,46.259806154704705,substation,,,,,,SRID=4326;POINT(-106.486411913931 46.2598061547047),us,montana,forsyth,rosebud county
4774,13740,-104.140625797529,47.868780253841706,substation,,,,,,SRID=4326;POINT(-104.140625797529 47.8687802538417),us,montana,sidney,richland county
4817,28807,-112.87646671846501,46.106006065763,merge,,,Mill Creek Generating Station;Anaconda Mill Creek Substation,Northwest Energy,,SRID=4326;POINT(-112.876466718465 46.106006065763),us,montana,anaconda,deer lodge county
4946,9675,-114.309353083486,48.2456101845026,sub_station,,,,,,SRID=4326;POINT(-114.309353083486 48.2456101845026),us,montana,evergreen,flathead county
5211,28975,-111.22193660904301,47.542341291495,merge,,,Great Falls Substation,Northwest Energy,,SRID=4326;POINT(-111.221936609043 47.542341291495),us,montana,malmstrom air force base,cascade county
5334,9656,-111.513094624971,45.9355245227318,substation,,,Three Rivers Substation,Northwestern Energy,,SRID=4326;POINT(-111.513094624971 45.9355245227318),us,montana,three forks,gallatin county
5390,8707,-104.044510353357,46.322277775017795,station,,,Little Missouri Substation,,,SRID=4326;POINT(-104.044510353357 46.3222777750178),us,montana,baker,fallon county
5463,23670,-114.631339571049,47.5778148835736,joint,230000,60,,,,SRID=4326;POINT(-114.631339571049 47.5778148835736),us,montana,plains,sanders county
5639,9645,-110.66586727541599,45.9549528052896,substation,,,Wilsall Substation,Northwest Energy,,SRID=4326;POINT(-110.665867275416 45.9549528052896),us,montana,livingston,park county
5821,28809,-107.94651634466899,45.321089590224396,merge,,,,,,SRID=4326;POINT(-107.946516344669 45.3210895902244),us,montana,hardin,big horn county
5866,20312,-115.572760064919,47.4551066102676,joint,500000,,,,Dworshak - Taft,SRID=4326;POINT(-115.572760064919 47.4551066102676),us,montana,thompson falls,sanders county
6093,31173,-111.110330962135,47.5397097037179,joint,230000,60,,,,SRID=4326;POINT(-111.110330962135 47.5397097037179),us,montana,malmstrom air force base,cascade county
6204,5720,-111.73335229147301,45.37948980246429,station,,,,,,SRID=4326;POINT(-111.733352291473 45.3794898024643),us,montana,virginia city,madison county
6607,9653,-109.938615741807,45.87125947617889,station,,,Big Timber Auto Substation,Northwestern Energy,,SRID=4326;POINT(-109.938615741807 45.8712594761789),us,montana,big timber,sweet grass county
6632,4766,-104.213696141936,47.688122937204106,sub_station,,,,,,SRID=4326;POINT(-104.213696141936 47.6881229372041),us,montana,sidney,richland county
6701,8621,-108.51674116354602,45.826774885732696,substation,,,,,,SRID=4326;POINT(-108.516741163546 45.8267748857327),us,montana,billings,yellowstone county
6761,13402,-114.930322790592,47.5098942925546,substation,,,,,,SRID=4326;POINT(-114.930322790592 47.5098942925546),us,montana,plains,sanders county
6959,2604,-107.68749830480301,45.76290629556829,station,,,,,,SRID=4326;POINT(-107.687498304803 45.7629062955683),us,montana,hardin,big horn county
7739,28976,-107.60092544665702,45.7673862310126,merge,,,,,,SRID=4326;POINT(-107.600925446657 45.7673862310126),us,montana,hardin,big horn county
7812,21862,-104.723929986791,47.1562971808135,joint,230000,,Dawson County - Dickinson 230kV transmission line,,DC-DK,SRID=4326;POINT(-104.723929986791 47.1562971808135),us,montana,west glendive,dawson county
7895,5149,-104.769606035905,47.10624683749829,station,,,Dawson County Substation,,DC,SRID=4326;POINT(-104.769606035905 47.1062468374983),us,montana,west glendive,dawson county
8049,23675,-114.13268843992701,48.371603484899396,joint,230000,60,,,,SRID=4326;POINT(-114.132688439927 48.3716034848994),us,montana,columbia falls,flathead county
8228,23671,-115.007566588452,48.1714120160441,joint,230000,60,,,,SRID=4326;POINT(-115.007566588452 48.1714120160441),us,montana,libby,lincoln county
8410,9666,-114.251440997733,48.0297997598355,station,,,,,,SRID=4326;POINT(-114.251440997733 48.0297997598355),us,montana,lakeside,flathead county
8552,8706,-104.266328037181,46.3839950054655,substation,,,Baker Substation,,,SRID=4326;POINT(-104.266328037181 46.3839950054655),us,montana,baker,fallon county
8586,28972,-113.597142125462,47.134869468849494,merge,,,,Bonneville Power Administration,,SRID=4326;POINT(-113.597142125462 47.1348694688495),us,montana,seeley lake,missoula county
8813,18050,-106.412495921296,48.012173977603595,joint,,,,,,SRID=4326;POINT(-106.412495921296 48.0121739776036),us,montana,glasgow,valley county
9287,30506,-114.232965932205,48.350729767236004,joint,230000,60,,,,SRID=4326;POINT(-114.232965932205 48.350729767236),us,montana,columbia falls,flathead county
9441,15554,-109.858067735902,46.75569312670589,substation,,,,Northwest Energy,,SRID=4326;POINT(-109.858067735902 46.7556931267059),us,montana,harlowton,wheatland county
9457,9678,-111.96520547815099,47.7137242527454,substation,,,,Northwest Energy,,SRID=4326;POINT(-111.965205478151 47.7137242527454),us,montana,choteau,teton county
9848,8675,-111.86233289979201,48.466354920542706,substation,,,Shelby Substation,,,SRID=4326;POINT(-111.862332899792 48.4663549205427),us,montana,shelby,toole county
9882,20884,-115.199328694512,47.5786990804252,joint,230000,60,,,,SRID=4326;POINT(-115.199328694512 47.5786990804252),us,montana,thompson falls,sanders county
9942,28870,-111.869041075924,48.5007960542832,merge,,,,,,SRID=4326;POINT(-111.869041075924 48.5007960542832),us,montana,shelby,toole county
9992,23678,-114.098491463523,48.385142372344504,joint,230000,60,,,,SRID=4326;POINT(-114.098491463523 48.3851423723445),us,montana,columbia falls,flathead county
10276,3109,-109.80291951038299,46.673402166859205,substation,,,,Northwest Energy,,SRID=4326;POINT(-109.802919510383 46.6734021668592),us,montana,harlowton,wheatland county
10282,3289,-115.589450231689,47.456051595242606,substation,,,Taft Substation,Bonneville Power Administration,,SRID=4326;POINT(-115.589450231689 47.4560515952426),us,montana,thompson falls,sanders county
10329,13073,-114.21667654588998,48.216606441036994,sub_station,,,,,,SRID=4326;POINT(-114.21667654589 48.216606441037),us,montana,evergreen,flathead county
10623,9664,-114.64298851797501,48.110939574799794,station,,,,,,SRID=4326;POINT(-114.642988517975 48.1109395747998),us,montana,kalispell,flathead county
10830,15556,-111.482207528836,45.9447137666513,substation,,,Three Rivers Substation,Northwestern Energy,,SRID=4326;POINT(-111.482207528836 45.9447137666513),us,montana,three forks,gallatin county
11524,20866,-112.933315544412,46.503627484941205,joint,230000,,,,,SRID=4326;POINT(-112.933315544412 46.5036274849412),us,montana,deer lodge,powell county
11561,9676,-114.312499945333,48.24517279219499,station,,,,,,SRID=4326;POINT(-114.312499945333 48.245172792195),us,montana,evergreen,flathead county
11748,3499,-114.628727845681,47.575913248483296,substation,,,Hot Springs Substation,Bonneville Power Administration,,SRID=4326;POINT(-114.628727845681 47.5759132484833),us,montana,plains,sanders county
11852,20672,-115.572761142898,47.4554527123527,joint,500000,,,,,SRID=4326;POINT(-115.572761142898 47.4554527123527),us,montana,thompson falls,sanders county
12490,2801,-115.73813928094,47.959449062599404,sub_station,,,Noxon Substation,Avista,,SRID=4326;POINT(-115.73813928094 47.9594490625994),us,montana,libby,lincoln county
12610,8077,-107.952574043933,45.308714063846,sub_station,,,,,,SRID=4326;POINT(-107.952574043933 45.308714063846),us,montana,hardin,big horn county
12790,18043,-112.89336090602501,46.1099400015868,joint,,,,,,SRID=4326;POINT(-112.893360906025 46.1099400015868),us,montana,anaconda,deer lodge county
12865,20488,-115.723997012556,47.9663823085172,joint,230000,60,,,,SRID=4326;POINT(-115.723997012556 47.9663823085172),us,montana,libby,lincoln county
13005,3097,-108.852113932619,46.0513788766148,substation,,,Broadview Substation,Northwest Energy,,SRID=4326;POINT(-108.852113932619 46.0513788766148),us,montana,laurel,yellowstone county
13110,14186,-110.078753706406,46.9758297430562,substation,,,,,,SRID=4326;POINT(-110.078753706406 46.9758297430562),us,montana,stanford,judith basin county
13182,484,-114.234017416388,48.3855369366876,station,,,,,,SRID=4326;POINT(-114.234017416388 48.3855369366876),us,montana,columbia falls,flathead county
13192,29747,-112.87881172426901,46.096826660636395,joint,,,,,,SRID=4326;POINT(-112.878811724269 46.0968266606364),us,montana,anaconda,deer lodge county
13332,9668,-114.019629648318,48.342266217662896,station,,,,,,SRID=4326;POINT(-114.019629648318 48.3422662176629),us,montana,columbia falls,flathead county
13430,2444,-113.09915997370301,46.9318162583323,substation,,,Ovando Substation,Bonneville Power Administration,,SRID=4326;POINT(-113.099159973703 46.9318162583323),us,montana,lincoln,lewis and clark county
13622,5719,-111.741450107234,45.350399191627,substation,,,,,,SRID=4326;POINT(-111.741450107234 45.350399191627),us,montana,virginia city,madison county
13627,8064,-112.87550469420601,46.099597733583096,substation,,,,Northwest Energy,,SRID=4326;POINT(-112.875504694206 46.0995977335831),us,montana,anaconda,deer lodge county
13644,20865,-111.472199985573,46.2535139007511,joint,500000,,,,,SRID=4326;POINT(-111.472199985573 46.2535139007511),us,montana,townsend,broadwater county
13682,31171,-109.836334445156,46.729508294353295,joint,230000,60,,,,SRID=4326;POINT(-109.836334445156 46.7295082943533),us,montana,harlowton,wheatland county
13743,15686,-109.75275394346399,46.57293502920321,substation,,,Judith Gap Substation,Northwest Energy,,SRID=4326;POINT(-109.752753943464 46.5729350292032),us,montana,harlowton,wheatland county
13782,10829,-114.85820828985901,48.707695845377394,substation,,,,,,SRID=4326;POINT(-114.858208289859 48.7076958453774),us,montana,eureka,lincoln county
14094,20673,-115.56971531509501,47.4557191814653,joint,500000,,,,,SRID=4326;POINT(-115.569715315095 47.4557191814653),us,montana,thompson falls,sanders county
14113,23677,-114.108299898615,48.3835538690429,joint,230000,60,,,,SRID=4326;POINT(-114.108299898615 48.3835538690429),us,montana,columbia falls,flathead county
14139,28973,-114.134105325023,48.3909880524329,merge,,,,,,SRID=4326;POINT(-114.134105325023 48.3909880524329),us,montana,columbia falls,flathead county
14669,30507,-114.232365209938,48.3494116300636,joint,230000,60,,,,SRID=4326;POINT(-114.232365209938 48.3494116300636),us,montana,columbia falls,flathead county
14878,8722,-106.412010381885,48.013417084465196,station,,,Fort Peck Station,,,SRID=4326;POINT(-106.412010381885 48.0134170844652),us,montana,glasgow,valley county
14883,8619,-108.49609904708001,45.7995563989524,station,,,,,,SRID=4326;POINT(-108.49609904708 45.7995563989524),us,montana,billings,yellowstone county
15031,28556,-105.792943729261,46.412434805782496,merge,,,Miles City Substation,,MC,SRID=4326;POINT(-105.792943729261 46.4124348057825),us,montana,miles city,custer county
15140,5151,-105.793698374305,46.4082261176985,substation,,,,,,SRID=4326;POINT(-105.793698374305 46.4082261176985),us,montana,miles city,custer county
15171,8674,-111.93866172603599,48.12948154922339,substation,,,Conrad Substation,Northwest Energy,,SRID=4326;POINT(-111.938661726036 48.1294815492234),us,montana,conrad,pondera county
15192,23673,-115.22937392716699,48.4002188721505,joint,230000,60,,,,SRID=4326;POINT(-115.229373927167 48.4002188721505),us,montana,libby,lincoln county
15309,13389,-106.612728350351,45.8835940496679,plant,,,Colstrip power plant,,,SRID=4326;POINT(-106.612728350351 45.8835940496679),us,montana,colstrip,rosebud county
15502,5905,-112.11194669691002,45.8146210809249,station,,,,,,SRID=4326;POINT(-112.11194669691 45.8146210809249),us,montana,whitehall,jefferson county
15605,29612,-108.591343161142,45.85706438163339,merge,,,Alkali Creek Substation,Northwestern Energy,,SRID=4326;POINT(-108.591343161142 45.8570643816334),us,montana,billings,yellowstone county
16048,23674,-114.141700608352,48.36507619586099,joint,230000,60,,,,SRID=4326;POINT(-114.141700608352 48.365076195861),us,montana,columbia falls,flathead county
16061,9661,-114.300525135938,47.3096125080129,substation,,,Dixon Substation,Bonneville Power Administration,,SRID=4326;POINT(-114.300525135938 47.3096125080129),us,montana,ronan,lake county
