,v_id,lon,lat,typ,voltage,frequency,name,operator,ref,wkt_srid_4326,country,state,town,admin2
109,28170,-62.483271711303,44.9878385948675,merge,,,,,,SRID=4326;POINT(-62.483271711303 44.9878385948675),ca,nova scotia,new glasgow,
154,17826,-62.71773757001289,44.7982420914695,sub_station,,,,,,SRID=4326;POINT(-62.7177375700129 44.7982420914695),ca,nova scotia,cole harbour,
344,17783,-64.55653317122639,44.3853091966188,sub_station,,,,,,SRID=4326;POINT(-64.5565331712264 44.3853091966188),ca,nova scotia,bridgewater,
684,30795,-63.594601519337594,44.69058972150349,joint,,,,,,SRID=4326;POINT(-63.5946015193376 44.6905897215035),ca,nova scotia,dartmouth,
686,17976,-63.498674128206794,44.9631351759999,sub_station,,,,,,SRID=4326;POINT(-63.4986741282068 44.9631351759999),ca,nova scotia,cole harbour,
871,26791,-64.77014544909929,44.079946079737994,joint,,,,,,SRID=4326;POINT(-64.7701454490993 44.079946079738),ca,nova scotia,bridgewater,
874,15932,-63.5208371227256,44.6817908851826,sub_station,,,,,,SRID=4326;POINT(-63.5208371227256 44.6817908851826),ca,nova scotia,cole harbour,
973,21571,-63.7715073920277,44.7732944024461,joint,345000;345000;230000;230000,,,,,SRID=4326;POINT(-63.7715073920277 44.7732944024461),ca,nova scotia,dartmouth,
1132,19958,-63.556480716739905,44.7406735618391,joint,,,,,,SRID=4326;POINT(-63.5564807167399 44.7406735618391),ca,nova scotia,dartmouth,
1884,17965,-62.65578552593821,45.29151826673329,sub_station,,,,,,SRID=4326;POINT(-62.6557855259382 45.2915182667333),ca,nova scotia,new glasgow,
2123,17866,-63.3518126946564,45.149629703879796,sub_station,,,,,,SRID=4326;POINT(-63.3518126946564 45.1496297038798),ca,nova scotia,truro,
2212,17788,-62.9693886492657,45.1297579904322,sub_station,,,,,,SRID=4326;POINT(-62.9693886492657 45.1297579904322),ca,nova scotia,truro,
2389,26792,-64.755587890594,44.2091308002522,joint,,,,,,SRID=4326;POINT(-64.755587890594 44.2091308002522),ca,nova scotia,bridgewater,
2494,4564,-63.7624296424313,44.852766793712995,sub_station,,,,,,SRID=4326;POINT(-63.7624296424313 44.852766793713),ca,nova scotia,dartmouth,
2911,19882,-64.54881969720779,44.36711829045589,joint,,,,,,SRID=4326;POINT(-64.5488196972078 44.3671182904559),ca,nova scotia,bridgewater,
3336,21570,-63.754316781593104,44.7532610587467,joint,345000;230000;345000;230000,,,,,SRID=4326;POINT(-63.7543167815931 44.7532610587467),ca,nova scotia,dartmouth,
3402,20616,-63.5988234364776,44.855713314214604,joint,,,,,,SRID=4326;POINT(-63.5988234364776 44.8557133142146),ca,nova scotia,dartmouth,
3575,3161,-63.551802845919,44.8505903947358,sub_station,,,,,,SRID=4326;POINT(-63.551802845919 44.8505903947358),ca,nova scotia,dartmouth,
4315,13442,-64.441236598536,44.4349679783487,sub_station,,,,,,SRID=4326;POINT(-64.441236598536 44.4349679783487),ca,nova scotia,bridgewater,
4400,13405,-63.683621120098294,44.6434464504481,sub_station,,,,,,SRID=4326;POINT(-63.6836211200983 44.6434464504481),ca,nova scotia,dartmouth,
4498,2243,-63.5942770640049,44.67713950917,sub_station,,,,,,SRID=4326;POINT(-63.5942770640049 44.67713950917),ca,nova scotia,dartmouth,
4983,6765,-63.481526843153404,44.701552071588296,sub_station,,,,,,SRID=4326;POINT(-63.4815268431534 44.7015520715883),ca,nova scotia,cole harbour,
6127,13443,-64.33186753690289,44.55841993263721,sub_station,,,,,,SRID=4326;POINT(-64.3318675369029 44.5584199326372),ca,nova scotia,chester,
6304,17728,-62.5003368270923,44.9339365685345,sub_station,,,,,,SRID=4326;POINT(-62.5003368270923 44.9339365685345),ca,nova scotia,new glasgow,
6732,28150,-63.1782648742134,44.7825538296715,merge,,,,,,SRID=4326;POINT(-63.1782648742134 44.7825538296715),ca,nova scotia,cole harbour,
6775,26790,-64.7692880071606,44.0745078899171,joint,,,,,,SRID=4326;POINT(-64.7692880071606 44.0745078899171),ca,nova scotia,bridgewater,
6779,23022,-62.4809430085919,44.988118175394796,joint,,,,,,SRID=4326;POINT(-62.4809430085919 44.9881181753948),ca,nova scotia,new glasgow,
7786,13369,-63.310942143133296,45.3899894942811,sub_station,,,,,,SRID=4326;POINT(-63.3109421431333 45.3899894942811),ca,nova scotia,truro,
8147,28390,-63.65317896971111,44.73289818735601,merge,,,,,,SRID=4326;POINT(-63.6531789697111 44.732898187356),ca,nova scotia,dartmouth,
8225,20209,-63.59472972389629,44.6900554638898,joint,,,,,,SRID=4326;POINT(-63.5947297238963 44.6900554638898),ca,nova scotia,dartmouth,
8641,2201,-63.6114778763913,44.7129826904236,sub_station,,,,,,SRID=4326;POINT(-63.6114778763913 44.7129826904236),ca,nova scotia,dartmouth,
8881,17949,-64.83486430424911,43.9541231645897,sub_station,,,,,,SRID=4326;POINT(-64.8348643042491 43.9541231645897),ca,nova scotia,shelburne,
8890,25704,-63.797639114148105,44.809966884428995,joint,230000,,,,,SRID=4326;POINT(-63.7976391141481 44.809966884429),ca,nova scotia,dartmouth,
8977,13444,-64.556647111844,44.3947597518799,sub_station,,,,,,SRID=4326;POINT(-64.556647111844 44.3947597518799),ca,nova scotia,bridgewater,
8995,15743,-63.31404952992229,44.73741893555861,station,,,,,,SRID=4326;POINT(-63.3140495299223 44.7374189355586),ca,nova scotia,cole harbour,
9399,15534,-64.77292143931071,44.077960476797294,sub_station,,,,,,SRID=4326;POINT(-64.7729214393107 44.0779604767973),ca,nova scotia,bridgewater,
10536,19881,-64.55111058084539,44.36799100973471,joint,,,,,,SRID=4326;POINT(-64.5511105808454 44.3679910097347),ca,nova scotia,bridgewater,
10588,13410,-64.08851102216501,44.644331995255605,sub_station,,,,,,SRID=4326;POINT(-64.088511022165 44.6443319952556),ca,nova scotia,chester,
11160,2244,-63.589961556199796,44.676617094465996,sub_station,,,,,,SRID=4326;POINT(-63.5899615561998 44.676617094466),ca,nova scotia,dartmouth,
11387,12550,-63.308172239438,45.4036494360124,sub_station,,,,,,SRID=4326;POINT(-63.308172239438 45.4036494360124),ca,nova scotia,truro,
12113,17968,-63.6189723788058,44.6425872902602,substation,,,,,,SRID=4326;POINT(-63.6189723788058 44.6425872902602),ca,nova scotia,halifax,
12592,17791,-63.394779294358905,45.1705276853226,sub_station,,,,,,SRID=4326;POINT(-63.3947792943589 45.1705276853226),ca,nova scotia,truro,
13792,26793,-64.75202750779701,44.2127181819994,joint,,,,,,SRID=4326;POINT(-64.752027507797 44.2127181819994),ca,nova scotia,bridgewater,
14474,1690,-63.684391020722195,44.7461986570455,sub_station,,,,,,SRID=4326;POINT(-63.6843910207222 44.7461986570455),ca,nova scotia,dartmouth,
14578,19944,-63.679581890688404,44.6816988124718,joint,,,,,,SRID=4326;POINT(-63.6795818906884 44.6816988124718),ca,nova scotia,dartmouth,
14583,28389,-63.67893178074429,44.684017469622404,merge,,,,,,SRID=4326;POINT(-63.6789317807443 44.6840174696224),ca,nova scotia,dartmouth,
15519,21572,-63.7635848800424,44.850831570879706,joint,138000,,,,,SRID=4326;POINT(-63.7635848800424 44.8508315708797),ca,nova scotia,dartmouth,
15624,15566,-63.56650066016629,44.7161006053479,sub_station,,,,,,SRID=4326;POINT(-63.5665006601663 44.7161006053479),ca,nova scotia,dartmouth,
15969,20208,-63.5948849527774,44.6903157057197,joint,,,,,,SRID=4326;POINT(-63.5948849527774 44.6903157057197),ca,nova scotia,dartmouth,
