,v_id,lon,lat,typ,voltage,frequency,name,operator,ref,wkt_srid_4326,country,state,town,admin2
183,26683,9.25120257612809,53.8976641888984,joint,380000,50,309 AKW Brunsbüttel - UW Wilster,TenneT,309,SRID=4326;POINT(9.25120257612809 53.8976641888984),de,schleswig-holstein,sankt margarethen,
272,30339,9.24764048653197,53.8981142089684,joint,380000,50,,TenneT,,SRID=4326;POINT(9.24764048653197 53.8981142089684),de,schleswig-holstein,sankt margarethen,
832,55127,9.345036450823528,53.85216717499561,merge,380000;220000,,Kernkraftwerk Brokdorf;Brokdorf,E.ON,KBR,SRID=4326;POINT(9.34503645082353 53.8521671749956),de,schleswig-holstein,brokdorf,
888,29424,9.332230165598029,54.72102281030129,joint,380000,50,305,TenneT,305,SRID=4326;POINT(9.33223016559803 54.7210228103013),de,schleswig-holstein,wanderup,
2883,65883,10.1676086724284,53.558734908851,joint,380000;110000;110000;380000,50,Hamburg/Ost - Hamburg/Nord,50Hertz,NB1;NB2;961;962,SRID=4326;POINT(10.1676086724284 53.558734908851),de,schleswig-holstein,barsbuettel,
3106,43351,10.1787530921693,54.3389779324496,plant,,,Gemeinschaftskraftwerk Kiel,,,SRID=4326;POINT(10.1787530921693 54.3389779324496),de,schleswig-holstein,monkeberg,
3553,24836,9.63540708241195,53.635637996933,joint,110000;380000;110000;380000,16.7;50;16.7;50,Nenndorf - Neumünster;380 kV 307 UW Wilster - UW Dollern; 110 kV Bahnstrom Nenndorf - Neumünster 1|2;307,DB_Energie,307,SRID=4326;POINT(9.63540708241195 53.635637996933),de,schleswig-holstein,heist,
3570,32565,9.98435558840302,54.3199946060874,joint,110000;220000;220000;110000,50,150;207,EON_Netz,150,SRID=4326;POINT(9.98435558840302 54.3199946060874),de,schleswig-holstein,quarnbek,
3641,32895,9.23672909993341,53.896601313504895,joint,220000;110000;220000;110000,50,,TenneT;EON_Netz,212;155,SRID=4326;POINT(9.23672909993341 53.8966013135049),de,schleswig-holstein,buttel,
3689,1889,7.73938331787679,54.453283286537896,substation,320000;155000,50;0,HelWin 2,,,SRID=4326;POINT(7.73938331787679 54.4532832865379),de,schleswig-holstein,helgoland,
3770,65871,10.0361687970235,53.803460092800705,joint,110000;220000;220000;110000,50,,Schleswig-Holstein Netz AG,147,SRID=4326;POINT(10.0361687970235 53.8034600928007),de,schleswig-holstein,kisdorf,
4034,65858,9.97965389603747,53.74817256304029,joint,220000;110000;110000;220000,50,,TenneT;Schleswig-Holstein Netz AG,209;118,SRID=4326;POINT(9.97965389603747 53.7481725630403),de,schleswig-holstein,henstedt-ulzburg,
4186,65859,9.98045887636357,53.7450907669697,joint,220000,50,,TenneT,203,SRID=4326;POINT(9.98045887636357 53.7450907669697),de,schleswig-holstein,henstedt-ulzburg,
4236,31538,10.201147453224,54.34002947968761,joint,110000;220000;110000,50,211;133,EON_Netz,133,SRID=4326;POINT(10.201147453224 54.3400294796876),de,schleswig-holstein,monkeberg,
4637,5168,9.449636590255249,53.967286500621796,substation,220000;110000,50,Itzehoe/West,TenneT TSO GmbH,,SRID=4326;POINT(9.44963659025525 53.9672865006218),de,schleswig-holstein,oldendorf,
4942,8484,9.234953760545391,53.91684662400821,substation,380000;320000;250000,50;0,Konverterstation Büttel,,,SRID=4326;POINT(9.23495376054539 53.9168466240082),de,schleswig-holstein,buttel,
5230,21479,9.98835991763386,53.766131414290896,merge,11000;400;220000;110000;30000,50,Henstedt-Ulzburg Kirchweg 17b;Hamburg Nord,Schleswig-Holstein Netz AG,,SRID=4326;POINT(9.98835991763386 53.7661314142909),de,schleswig-holstein,henstedt-ulzburg,
5252,33759,9.44824201498731,53.9659421939941,joint,220000;110000;110000;220000,50,212 Brunsbüttel-Itzehoe/West,TenneT;EON_Netz,212;136,SRID=4326;POINT(9.44824201498731 53.9659421939941),de,schleswig-holstein,oldendorf,
5561,2513,10.1575057595216,53.555126636464394,substation,380000;110000,50,Umspannwerk Hamburg/Ost,50Hertz Transmission;Stromnetz Hamburg GmbH,,SRID=4326;POINT(10.1575057595216 53.5551266364644),de,schleswig-holstein,oststeinbek,
5918,5830,9.318195282074981,54.71604943801329,substation,380000;220000;110000;20000,50,Flensburg,TenneT,FLEN,SRID=4326;POINT(9.31819528207498 54.7160494380133),de,schleswig-holstein,wanderup,
5970,26947,9.24382839579228,53.8979165119693,joint,220000;220000;110000;110000,50,212 Brunsbüttel-Itzehoe/West,TenneT,212,SRID=4326;POINT(9.24382839579228 53.8979165119693),de,schleswig-holstein,sankt margarethen,
6678,25521,10.200908681021499,54.3400920087268,joint,110000;220000;110000,50,,EON_Netz,133,SRID=4326;POINT(10.2009086810215 54.3400920087268),de,schleswig-holstein,monkeberg,
6726,55581,8.82847935790118,54.1468596760803,joint,320000;155000,0,,,,SRID=4326;POINT(8.82847935790118 54.1468596760803),de,schleswig-holstein,busum,
6862,26536,9.99683740978128,54.3134179918361,joint,220000,50,207,TenneT,207A,SRID=4326;POINT(9.99683740978128 54.3134179918361),de,schleswig-holstein,quarnbek,
6872,2733,10.1562825155965,54.275548282897205,substation,220000;110000,50,Kiel-Süd,EON_Netz;TenneT,,SRID=4326;POINT(10.1562825155965 54.2755482828972),de,schleswig-holstein,grossbarkau,
7049,2633,9.776544836033029,53.6906352940911,substation,220000;110000,50,Kummerfeld,TenneT,,SRID=4326;POINT(9.77654483603303 53.6906352940911),de,schleswig-holstein,kummerfeld,
7095,2759,10.0604081360095,54.3487708354365,substation,220000;110000,50,Umspannwerk Kiel West,TenneT,,SRID=4326;POINT(10.0604081360095 54.3487708354365),de,schleswig-holstein,ottendorf,
7364,36918,9.34476101692227,53.92183708139179,substation,380000,50,Umspannwerk Wilster,TenneT,,SRID=4326;POINT(9.34476101692227 53.9218370813918),de,schleswig-holstein,landrecht,
7786,3086,9.72699275106814,54.2914209859116,substation,220000;110000,50,Audorf,TenneT;Schleswig-Holstein Netz AG,,SRID=4326;POINT(9.72699275106814 54.2914209859116),de,schleswig-holstein,schulldorf,
8520,26692,9.361842589949859,53.8732792706824,joint,220000;380000;380000;220000,50,202A;307;307;202A,TenneT,307,SRID=4326;POINT(9.36184258994986 53.8732792706824),de,schleswig-holstein,brokdorf,
8636,33122,9.24465322888616,53.896992166842395,joint,380000,50,309 AKW Brunsbüttel - UW Wilster,TenneT,309,SRID=4326;POINT(9.24465322888616 53.8969921668424),de,schleswig-holstein,sankt margarethen,
8815,58718,9.45870792703647,53.8645210981048,joint,380000;220000,50,307;202A,TenneT,,SRID=4326;POINT(9.45870792703647 53.8645210981048),de,schleswig-holstein,bahrenfleth,
9364,66208,9.773140285202759,53.6950714960581,joint,220000;110000;220000;220000;110000,50,,TenneT;Schleswig-Holstein Netz AG,316A;138,SRID=4326;POINT(9.77314028520276 53.6950714960581),de,schleswig-holstein,kummerfeld,
9667,2971,9.2021026634054,53.895162362238295,substation,380000;220000;110000,50,Umspannwerk Kernkraftwerk Brunsbüttel,50Hertz Transmission,,SRID=4326;POINT(9.2021026634054 53.8951623622383),de,schleswig-holstein,buttel,
9725,27768,10.201009202501801,54.3400656145711,joint,110000;220000;110000;220000;110000,50,211;133,EON_Netz,133,SRID=4326;POINT(10.2010092025018 54.3400656145711),de,schleswig-holstein,monkeberg,
9906,60078,9.77606340313729,53.6975393850698,joint,220000;110000;220000,50,,TenneT,316;138,SRID=4326;POINT(9.77606340313729 53.6975393850698),de,schleswig-holstein,kummerfeld,
10286,26817,9.459677478722618,53.8646575042439,joint,220000,50,202A;202 UW-HH-Nord UW-Itzehoe-West;202 UW-HH-Nord UW-Itzehoe-West,TenneT,,SRID=4326;POINT(9.45967747872262 53.8646575042439),de,schleswig-holstein,bahrenfleth,
10436,26196,9.76851243435357,53.696850001185894,joint,220000,50,,TenneT,316A,SRID=4326;POINT(9.76851243435357 53.6968500011859),de,schleswig-holstein,kummerfeld,
10992,36546,9.98460987842098,53.741128819670294,substation,380000;220000;110000,50,Umspannwerk Hamburg-Nord,50Hertz Transmission,,SRID=4326;POINT(9.98460987842098 53.7411288196703),de,schleswig-holstein,henstedt-ulzburg,
11010,60077,9.785722807724369,53.7061889645288,joint,110000;220000;220000;110000,50,138,Schleswig-Holstein Netz AG,316,SRID=4326;POINT(9.78572280772437 53.7061889645288),de,schleswig-holstein,kummerfeld,
11011,33197,9.641490024358369,54.3520620014702,joint,220000;110000;110000,50,,EON_Netz,205;102,SRID=4326;POINT(9.64149002435837 54.3520620014702),de,schleswig-holstein,alt duvenstedt,
11256,33099,9.35573081208282,53.8783432677236,joint,380000,50,"307 UW Wilster - UW Dollern, 308 AKW Brokdorf - UW Wilster;308 AKW Brokdorf - UW Wilster;307",TenneT,307;308,SRID=4326;POINT(9.35573081208282 53.8783432677236),de,schleswig-holstein,brokdorf,
11406,66168,10.159276887999699,53.5511301890786,joint,380000;110000,50,KKW Krümmel - UW HH-OST;KKW Krümmel - Hamburg/OST,50Hertz Transmission,,SRID=4326;POINT(10.1592768879997 53.5511301890786),de,schleswig-holstein,oststeinbek,
12036,36349,7.73464596239445,54.519907485726996,substation,,,,,,SRID=4326;POINT(7.73464596239445 54.519907485727),de,schleswig-holstein,helgoland,
12216,35554,7.2409500282111,55.062699969460496,substation,320000;155000,50;0,SylWin Alpha,,,SRID=4326;POINT(7.2409500282111 55.0626999694605),de,schleswig-holstein,westerland,
12345,33073,9.51489997350941,54.3777029993115,joint,220000;110000;110000;220000,50,,EON_Netz,205;102,SRID=4326;POINT(9.51489997350941 54.3777029993115),de,schleswig-holstein,tetenhusen,
12758,54540,9.72403663645574,54.2888932805628,merge,380000;110000,50,Audorf;Kraftwerk Audorf,TenneT,,SRID=4326;POINT(9.72403663645574 54.2888932805628),de,schleswig-holstein,schulldorf,
12836,39439,9.9508759536462,54.3227891444214,substation,110000,50,Umspannwerk Felde,Schleswig-Holstein Netz AG,,SRID=4326;POINT(9.9508759536462 54.3227891444214),de,schleswig-holstein,achterwehr,
12906,42266,10.6414677999401,53.91916267811279,substation,220000;110000,50,Lübeck,TenneT;EON_Netz,,SRID=4326;POINT(10.6414677999401 53.9191626781128),de,schleswig-holstein,stockelsdorf,
13518,50729,9.19699688149761,54.8510976310855,substation,380000;110000;20000,50,Umspannwerk Jardelund,TenneT,,SRID=4326;POINT(9.19699688149761 54.8510976310855),de,schleswig-holstein,boxlund,
